{"type": "FeatureCollection", "features": [{"type": "Feature", "geometry": {"type": "Point", "coordinates": [11.940091980099371, 57.71128741940675]}, "properties": {"id": 0, "height": 8.5}}, {"type": "Feature", "geometry": {"type": "Point", "coordinates": [11.941785779768786, 57.71131489304553]}, "properties": {"id": 1, "height": 14.3}}, {"type": "Feature", "geometry": {"type": "Point", "coordinates": [11.941393403550626, 57.71118856397168]}, "properties": {"id": 2, "height": 13.5}}, {"type": "Feature", "geometry": {"type": "Point", "coordinates": [11.940928694415899, 57.7111234004294]}, "properties": {"id": 3, "height": 12.6}}, {"type": "Feature", "geometry": {"type": "Point", "coordinates": [11.940740130814515, 57.711069407021284]}, "properties": {"id": 4, "height": 11.8}}, {"type": "Feature", "geometry": {"type": "Point", "coordinates": [11.941813082286629, 57.71109085392267]}, "properties": {"id": 5, "height": 8.6}}, {"type": "Feature", "geometry": {"type": "Point", "coordinates": [11.941293933087488, 57.711073809542604]}, "properties": {"id": 6, "height": 2.6}}, {"type": "Feature", "geometry": {"type": "Point", "coordinates": [11.941310692037392, 57.7110742147225]}, "properties": {"id": 7, "height": 2.6}}, {"type": "Feature", "geometry": {"type": "Point", "coordinates": [11.941202515935139, 57.71106261135116]}, "properties": {"id": 8, "height": 2.7}}, {"type": "Feature", "geometry": {"type": "Point", "coordinates": [11.94115067332392, 57.7109804662038]}, "properties": {"id": 9, "height": 2.7}}, {"type": "Feature", "geometry": {"type": "Point", "coordinates": [11.940472695309069, 57.71095508414792]}, "properties": {"id": 10, "height": 9.9}}, {"type": "Feature", "geometry": {"type": "Point", "coordinates": [11.939817536442732, 57.71085834663776]}, "properties": {"id": 11, "height": 9.2}}, {"type": "Feature", "geometry": {"type": "Point", "coordinates": [11.939520422469107, 57.710797231628824]}, "properties": {"id": 12, "height": 9.6}}, {"type": "Feature", "geometry": {"type": "Point", "coordinates": [11.93442842537339, 57.710642489598705]}, "properties": {"id": 13, "height": 4.9}}, {"type": "Feature", "geometry": {"type": "Point", "coordinates": [11.947303729059154, 57.71089989311567]}, "properties": {"id": 14, "height": 2.0}}, {"type": "Feature", "geometry": {"type": "Point", "coordinates": [11.947312108540823, 57.71090009530785]}, "properties": {"id": 15, "height": 2.0}}, {"type": "Feature", "geometry": {"type": "Point", "coordinates": [11.933857461696762, 57.71054326703999]}, "properties": {"id": 16, "height": 6.6}}, {"type": "Feature", "geometry": {"type": "Point", "coordinates": [11.9350579776061, 57.71054539318229]}, "properties": {"id": 17, "height": 10.9}}, {"type": "Feature", "geometry": {"type": "Point", "coordinates": [11.935401529163439, 57.71055371579766]}, "properties": {"id": 18, "height": 12.7}}, {"type": "Feature", "geometry": {"type": "Point", "coordinates": [11.935493701564665, 57.71055594853601]}, "properties": {"id": 19, "height": 12.3}}, {"type": "Feature", "geometry": {"type": "Point", "coordinates": [11.934498461257594, 57.71050936678884]}, "properties": {"id": 20, "height": 8.8}}, {"type": "Feature", "geometry": {"type": "Point", "coordinates": [11.944294685865751, 57.71073737104777]}, "properties": {"id": 21, "height": 8.8}}, {"type": "Feature", "geometry": {"type": "Point", "coordinates": [11.939196849672477, 57.7103534868659]}, "properties": {"id": 22, "height": 4.0}}, {"type": "Feature", "geometry": {"type": "Point", "coordinates": [11.93920522896458, 57.710353689593305]}, "properties": {"id": 23, "height": 4.0}}, {"type": "Feature", "geometry": {"type": "Point", "coordinates": [11.939347676947534, 57.710357135874425]}, "properties": {"id": 24, "height": 4.1}}, {"type": "Feature", "geometry": {"type": "Point", "coordinates": [11.93934805569842, 57.7103526510505]}, "properties": {"id": 25, "height": 4.1}}, {"type": "Feature", "geometry": {"type": "Point", "coordinates": [11.939356434991515, 57.71035285376789]}, "properties": {"id": 26, "height": 4.1}}, {"type": "Feature", "geometry": {"type": "Point", "coordinates": [11.939228426562343, 57.71027785304764]}, "properties": {"id": 27, "height": 4.0}}, {"type": "Feature", "geometry": {"type": "Point", "coordinates": [11.939236805837222, 57.7102780557728]}, "properties": {"id": 28, "height": 4.0}}, {"type": "Feature", "geometry": {"type": "Point", "coordinates": [11.939505321423109, 57.71028005786038]}, "properties": {"id": 29, "height": 4.0}}, {"type": "Feature", "geometry": {"type": "Point", "coordinates": [11.939505700153381, 57.71027557303571]}, "properties": {"id": 30, "height": 4.0}}, {"type": "Feature", "geometry": {"type": "Point", "coordinates": [11.94595815425879, 57.71042700839199]}, "properties": {"id": 31, "height": 11.5}}, {"type": "Feature", "geometry": {"type": "Point", "coordinates": [11.939005216518812, 57.7102365006786]}, "properties": {"id": 32, "height": 4.1}}, {"type": "Feature", "geometry": {"type": "Point", "coordinates": [11.939176589514783, 57.710195707136684]}, "properties": {"id": 33, "height": 4.0}}, {"type": "Feature", "geometry": {"type": "Point", "coordinates": [11.939176968284462, 57.710191222313355]}, "properties": {"id": 34, "height": 4.0}}, {"type": "Feature", "geometry": {"type": "Point", "coordinates": [11.939403965677764, 57.71018772613609]}, "properties": {"id": 35, "height": 4.2}}, {"type": "Feature", "geometry": {"type": "Point", "coordinates": [11.938926727104048, 57.71017168573793]}, "properties": {"id": 36, "height": 4.0}}, {"type": "Feature", "geometry": {"type": "Point", "coordinates": [11.938927105904266, 57.7101672009156]}, "properties": {"id": 37, "height": 4.0}}, {"type": "Feature", "geometry": {"type": "Point", "coordinates": [11.938919105458556, 57.710162513347925]}, "properties": {"id": 38, "height": 4.0}}, {"type": "Feature", "geometry": {"type": "Point", "coordinates": [11.938927484704374, 57.71016271609328]}, "properties": {"id": 39, "height": 4.0}}, {"type": "Feature", "geometry": {"type": "Point", "coordinates": [11.938935863950304, 57.71016291883809]}, "properties": {"id": 40, "height": 4.0}}, {"type": "Feature", "geometry": {"type": "Point", "coordinates": [11.938927863504368, 57.71015823127097]}, "properties": {"id": 41, "height": 4.0}}, {"type": "Feature", "geometry": {"type": "Point", "coordinates": [11.939699511914975, 57.71016791181996]}, "properties": {"id": 42, "height": 4.0}}, {"type": "Feature", "geometry": {"type": "Point", "coordinates": [11.939707891168148, 57.7101681145137]}, "properties": {"id": 43, "height": 4.0}}, {"type": "Feature", "geometry": {"type": "Point", "coordinates": [11.93971627042143, 57.71016831720687]}, "properties": {"id": 44, "height": 4.0}}, {"type": "Feature", "geometry": {"type": "Point", "coordinates": [11.9396998906196, 57.7101634269944]}, "properties": {"id": 45, "height": 4.0}}, {"type": "Feature", "geometry": {"type": "Point", "coordinates": [11.939708269871737, 57.710163629688104]}, "properties": {"id": 46, "height": 4.0}}, {"type": "Feature", "geometry": {"type": "Point", "coordinates": [11.939716649123987, 57.71016383238124]}, "properties": {"id": 47, "height": 4.0}}, {"type": "Feature", "geometry": {"type": "Point", "coordinates": [11.939725028376351, 57.71016403507383]}, "properties": {"id": 48, "height": 4.0}}, {"type": "Feature", "geometry": {"type": "Point", "coordinates": [11.939708648575218, 57.71015914486249]}, "properties": {"id": 49, "height": 4.0}}, {"type": "Feature", "geometry": {"type": "Point", "coordinates": [11.939717027826436, 57.7101593475556]}, "properties": {"id": 50, "height": 4.0}}, {"type": "Feature", "geometry": {"type": "Point", "coordinates": [11.939725407077765, 57.71015955024818]}, "properties": {"id": 51, "height": 4.0}}, {"type": "Feature", "geometry": {"type": "Point", "coordinates": [11.93876520328829, 57.71009587357758]}, "properties": {"id": 52, "height": 5.1}}, {"type": "Feature", "geometry": {"type": "Point", "coordinates": [11.938773582517511, 57.71009607633298]}, "properties": {"id": 53, "height": 5.1}}, {"type": "Feature", "geometry": {"type": "Point", "coordinates": [11.938781961746843, 57.71009627908783]}, "properties": {"id": 54, "height": 5.1}}, {"type": "Feature", "geometry": {"type": "Point", "coordinates": [11.93879034097629, 57.71009648184211]}, "properties": {"id": 55, "height": 5.1}}, {"type": "Feature", "geometry": {"type": "Point", "coordinates": [11.938757202879295, 57.71009118599997]}, "properties": {"id": 56, "height": 5.1}}, {"type": "Feature", "geometry": {"type": "Point", "coordinates": [11.93876558210737, 57.71009138875588]}, "properties": {"id": 57, "height": 5.1}}, {"type": "Feature", "geometry": {"type": "Point", "coordinates": [11.938773961335558, 57.71009159151125]}, "properties": {"id": 58, "height": 5.1}}, {"type": "Feature", "geometry": {"type": "Point", "coordinates": [11.938782340563858, 57.71009179426607]}, "properties": {"id": 59, "height": 5.1}}, {"type": "Feature", "geometry": {"type": "Point", "coordinates": [11.93982250181024, 57.710103477090684]}, "properties": {"id": 60, "height": 4.0}}, {"type": "Feature", "geometry": {"type": "Point", "coordinates": [11.93983088104949, 57.71010367977612]}, "properties": {"id": 61, "height": 4.0}}, {"type": "Feature", "geometry": {"type": "Point", "coordinates": [11.939035232608113, 57.71007993736146]}, "properties": {"id": 62, "height": 4.1}}, {"type": "Feature", "geometry": {"type": "Point", "coordinates": [11.939306019213253, 57.71005503091878]}, "properties": {"id": 63, "height": 4.0}}, {"type": "Feature", "geometry": {"type": "Point", "coordinates": [11.93931439843727, 57.71005523363831]}, "properties": {"id": 64, "height": 4.0}}, {"type": "Feature", "geometry": {"type": "Point", "coordinates": [11.939492255810984, 57.71003706649651]}, "properties": {"id": 65, "height": 4.0}}, {"type": "Feature", "geometry": {"type": "Point", "coordinates": [11.939342566086776, 57.71001996320041]}, "properties": {"id": 66, "height": 4.0}}, {"type": "Feature", "geometry": {"type": "Point", "coordinates": [11.939987766063336, 57.71003557079052]}, "properties": {"id": 67, "height": 4.0}}, {"type": "Feature", "geometry": {"type": "Point", "coordinates": [11.939050051155794, 57.71000389810952]}, "properties": {"id": 68, "height": 4.1}}, {"type": "Feature", "geometry": {"type": "Point", "coordinates": [11.939058430366, 57.710004100845865]}, "properties": {"id": 69, "height": 4.1}}, {"type": "Feature", "geometry": {"type": "Point", "coordinates": [11.93906680957632, 57.71000430358164]}, "properties": {"id": 70, "height": 4.1}}, {"type": "Feature", "geometry": {"type": "Point", "coordinates": [11.939050429938316, 57.709999413286546]}, "properties": {"id": 71, "height": 4.1}}, {"type": "Feature", "geometry": {"type": "Point", "coordinates": [11.939058809147488, 57.70999961602286]}, "properties": {"id": 72, "height": 4.1}}, {"type": "Feature", "geometry": {"type": "Point", "coordinates": [11.939067188356773, 57.70999981875862]}, "properties": {"id": 73, "height": 4.1}}, {"type": "Feature", "geometry": {"type": "Point", "coordinates": [11.939192876509528, 57.710002859728526]}, "properties": {"id": 74, "height": 4.0}}, {"type": "Feature", "geometry": {"type": "Point", "coordinates": [11.938933499818576, 57.70999209009752]}, "properties": {"id": 75, "height": 4.0}}, {"type": "Feature", "geometry": {"type": "Point", "coordinates": [11.939059187928862, 57.70999513119988]}, "properties": {"id": 76, "height": 4.1}}, {"type": "Feature", "geometry": {"type": "Point", "coordinates": [11.939067567137114, 57.7099953339356]}, "properties": {"id": 77, "height": 4.1}}, {"type": "Feature", "geometry": {"type": "Point", "coordinates": [11.938933878615334, 57.709987605275046]}, "properties": {"id": 78, "height": 4.0}}, {"type": "Feature", "geometry": {"type": "Point", "coordinates": [11.939059566710124, 57.70999064637687]}, "properties": {"id": 79, "height": 4.1}}, {"type": "Feature", "geometry": {"type": "Point", "coordinates": [11.939679628347854, 57.710005647321516]}, "properties": {"id": 80, "height": 4.1}}, {"type": "Feature", "geometry": {"type": "Point", "coordinates": [11.939296835817956, 57.70996492899881]}, "properties": {"id": 81, "height": 3.9}}, {"type": "Feature", "geometry": {"type": "Point", "coordinates": [11.939297214569397, 57.70996044417481]}, "properties": {"id": 82, "height": 3.9}}, {"type": "Feature", "geometry": {"type": "Point", "coordinates": [11.939297593320726, 57.709955959350786]}, "properties": {"id": 83, "height": 3.9}}, {"type": "Feature", "geometry": {"type": "Point", "coordinates": [11.939305972521794, 57.70995616207064]}, "properties": {"id": 84, "height": 3.9}}, {"type": "Feature", "geometry": {"type": "Point", "coordinates": [11.93929797207194, 57.709951474526754]}, "properties": {"id": 85, "height": 3.9}}, {"type": "Feature", "geometry": {"type": "Point", "coordinates": [11.939306351271979, 57.709951677246586]}, "properties": {"id": 86, "height": 3.9}}, {"type": "Feature", "geometry": {"type": "Point", "coordinates": [11.939298350823043, 57.70994698970274]}, "properties": {"id": 87, "height": 3.9}}, {"type": "Feature", "geometry": {"type": "Point", "coordinates": [11.939306730022047, 57.70994719242253]}, "properties": {"id": 88, "height": 3.9}}, {"type": "Feature", "geometry": {"type": "Point", "coordinates": [11.939315109221162, 57.70994739514176]}, "properties": {"id": 89, "height": 3.9}}, {"type": "Feature", "geometry": {"type": "Point", "coordinates": [11.939281971178431, 57.709942099437505]}, "properties": {"id": 90, "height": 3.9}}, {"type": "Feature", "geometry": {"type": "Point", "coordinates": [11.939290350376178, 57.70994230215839]}, "properties": {"id": 91, "height": 3.9}}, {"type": "Feature", "geometry": {"type": "Point", "coordinates": [11.939298729574034, 57.70994250487869]}, "properties": {"id": 92, "height": 3.9}}, {"type": "Feature", "geometry": {"type": "Point", "coordinates": [11.939307108772004, 57.709942707598465]}, "properties": {"id": 93, "height": 3.9}}, {"type": "Feature", "geometry": {"type": "Point", "coordinates": [11.939315487970086, 57.70994291031767]}, "properties": {"id": 94, "height": 3.9}}, {"type": "Feature", "geometry": {"type": "Point", "coordinates": [11.939290729128087, 57.70993781733439]}, "properties": {"id": 95, "height": 3.9}}, {"type": "Feature", "geometry": {"type": "Point", "coordinates": [11.939299108324912, 57.70993802005468]}, "properties": {"id": 96, "height": 3.9}}, {"type": "Feature", "geometry": {"type": "Point", "coordinates": [11.939307487521848, 57.70993822277442]}, "properties": {"id": 97, "height": 3.9}}, {"type": "Feature", "geometry": {"type": "Point", "coordinates": [11.939315866718898, 57.709938425493554]}, "properties": {"id": 98, "height": 3.9}}, {"type": "Feature", "geometry": {"type": "Point", "coordinates": [11.939324245916062, 57.70993862821218]}, "properties": {"id": 99, "height": 3.9}}, {"type": "Feature", "geometry": {"type": "Point", "coordinates": [11.939952686023473, 57.70995383052938]}, "properties": {"id": 100, "height": 4.0}}, {"type": "Feature", "geometry": {"type": "Point", "coordinates": [11.939961065229175, 57.70995403320589]}, "properties": {"id": 101, "height": 4.0}}, {"type": "Feature", "geometry": {"type": "Point", "coordinates": [11.939291107879885, 57.70993333251039]}, "properties": {"id": 102, "height": 3.9}}, {"type": "Feature", "geometry": {"type": "Point", "coordinates": [11.939299487075678, 57.709933535230626]}, "properties": {"id": 103, "height": 3.9}}, {"type": "Feature", "geometry": {"type": "Point", "coordinates": [11.939307866271582, 57.7099337379503]}, "properties": {"id": 104, "height": 3.9}}, {"type": "Feature", "geometry": {"type": "Point", "coordinates": [11.939316245467598, 57.70993394066945]}, "properties": {"id": 105, "height": 3.9}}, {"type": "Feature", "geometry": {"type": "Point", "coordinates": [11.939324624663728, 57.70993414338803]}, "properties": {"id": 106, "height": 3.9}}, {"type": "Feature", "geometry": {"type": "Point", "coordinates": [11.939525725404538, 57.70993900846774]}, "properties": {"id": 107, "height": 4.0}}, {"type": "Feature", "geometry": {"type": "Point", "coordinates": [11.939534104603476, 57.70993921117248]}, "properties": {"id": 108, "height": 4.0}}, {"type": "Feature", "geometry": {"type": "Point", "coordinates": [11.939542483802526, 57.70993941387666]}, "properties": {"id": 109, "height": 4.0}}, {"type": "Feature", "geometry": {"type": "Point", "coordinates": [11.939550863001688, 57.70993961658028]}, "properties": {"id": 110, "height": 4.0}}, {"type": "Feature", "geometry": {"type": "Point", "coordinates": [11.939559242200966, 57.70993981928334]}, "properties": {"id": 111, "height": 4.0}}, {"type": "Feature", "geometry": {"type": "Point", "coordinates": [11.939299865826333, 57.70992905040657]}, "properties": {"id": 112, "height": 3.9}}, {"type": "Feature", "geometry": {"type": "Point", "coordinates": [11.939308245021202, 57.70992925312625]}, "properties": {"id": 113, "height": 3.9}}, {"type": "Feature", "geometry": {"type": "Point", "coordinates": [11.939316624216188, 57.70992945584533]}, "properties": {"id": 114, "height": 3.9}}, {"type": "Feature", "geometry": {"type": "Point", "coordinates": [11.939325003411282, 57.709929658563865]}, "properties": {"id": 115, "height": 3.9}}, {"type": "Feature", "geometry": {"type": "Point", "coordinates": [11.939526104127301, 57.70993452364276]}, "properties": {"id": 116, "height": 4.0}}, {"type": "Feature", "geometry": {"type": "Point", "coordinates": [11.939534483325208, 57.70993472634745]}, "properties": {"id": 117, "height": 4.0}}, {"type": "Feature", "geometry": {"type": "Point", "coordinates": [11.939542862523226, 57.70993492905159]}, "properties": {"id": 118, "height": 4.0}}, {"type": "Feature", "geometry": {"type": "Point", "coordinates": [11.939551241721356, 57.70993513175519]}, "properties": {"id": 119, "height": 4.0}}, {"type": "Feature", "geometry": {"type": "Point", "coordinates": [11.939559620919598, 57.70993533445821]}, "properties": {"id": 120, "height": 4.0}}, {"type": "Feature", "geometry": {"type": "Point", "coordinates": [11.939568000117951, 57.709935537160696]}, "properties": {"id": 121, "height": 4.0}}, {"type": "Feature", "geometry": {"type": "Point", "coordinates": [11.939300244576874, 57.70992456558253]}, "properties": {"id": 122, "height": 3.9}}, {"type": "Feature", "geometry": {"type": "Point", "coordinates": [11.93930862377071, 57.709924768302145]}, "properties": {"id": 123, "height": 3.9}}, {"type": "Feature", "geometry": {"type": "Point", "coordinates": [11.939317002964662, 57.70992497102121]}, "properties": {"id": 124, "height": 3.9}}, {"type": "Feature", "geometry": {"type": "Point", "coordinates": [11.939309002520108, 57.709920283478056]}, "properties": {"id": 125, "height": 3.9}}, {"type": "Feature", "geometry": {"type": "Point", "coordinates": [11.939317381713025, 57.709920486197085]}, "properties": {"id": 126, "height": 3.9}}, {"type": "Feature", "geometry": {"type": "Point", "coordinates": [11.93911665988706, 57.709911135964184]}, "properties": {"id": 127, "height": 3.9}}, {"type": "Feature", "geometry": {"type": "Point", "coordinates": [11.939309381269391, 57.70991579865395]}, "properties": {"id": 128, "height": 3.9}}, {"type": "Feature", "geometry": {"type": "Point", "coordinates": [11.939317760461275, 57.70991600137295]}, "properties": {"id": 129, "height": 3.9}}, {"type": "Feature", "geometry": {"type": "Point", "coordinates": [11.939719961803902, 57.709925731233156]}, "properties": {"id": 130, "height": 4.1}}, {"type": "Feature", "geometry": {"type": "Point", "coordinates": [11.939117038659987, 57.709906651140884]}, "properties": {"id": 131, "height": 3.9}}, {"type": "Feature", "geometry": {"type": "Point", "coordinates": [11.939125417848253, 57.709906853872596]}, "properties": {"id": 132, "height": 3.9}}, {"type": "Feature", "geometry": {"type": "Point", "coordinates": [11.940233743496854, 57.709906700626355]}, "properties": {"id": 133, "height": 4.2}}, {"type": "Feature", "geometry": {"type": "Point", "coordinates": [11.93958092390645, 57.70988192195985]}, "properties": {"id": 134, "height": 4.0}}, {"type": "Feature", "geometry": {"type": "Point", "coordinates": [11.939589303092633, 57.7098821246608]}, "properties": {"id": 135, "height": 4.0}}, {"type": "Feature", "geometry": {"type": "Point", "coordinates": [11.939597682278931, 57.7098823273612]}, "properties": {"id": 136, "height": 4.0}}, {"type": "Feature", "geometry": {"type": "Point", "coordinates": [11.939572923436517, 57.70987723443311]}, "properties": {"id": 137, "height": 4.0}}, {"type": "Feature", "geometry": {"type": "Point", "coordinates": [11.939581302621555, 57.709877437134594]}, "properties": {"id": 138, "height": 4.0}}, {"type": "Feature", "geometry": {"type": "Point", "coordinates": [11.939589681806707, 57.709877639835504]}, "properties": {"id": 139, "height": 4.0}}, {"type": "Feature", "geometry": {"type": "Point", "coordinates": [11.939598060991969, 57.70987784253586]}, "properties": {"id": 140, "height": 4.0}}, {"type": "Feature", "geometry": {"type": "Point", "coordinates": [11.939405718496019, 57.709868695462816]}, "properties": {"id": 141, "height": 2.6}}, {"type": "Feature", "geometry": {"type": "Point", "coordinates": [11.939414097677776, 57.709868898175344]}, "properties": {"id": 142, "height": 2.6}}, {"type": "Feature", "geometry": {"type": "Point", "coordinates": [11.939422476859649, 57.70986910088728]}, "properties": {"id": 143, "height": 2.6}}, {"type": "Feature", "geometry": {"type": "Point", "coordinates": [11.93943085604163, 57.709869303598715]}, "properties": {"id": 144, "height": 2.6}}, {"type": "Feature", "geometry": {"type": "Point", "coordinates": [11.939439235223727, 57.70986950630956]}, "properties": {"id": 145, "height": 2.6}}, {"type": "Feature", "geometry": {"type": "Point", "coordinates": [11.9391714802179, 57.70985853446389]}, "properties": {"id": 146, "height": 3.9}}, {"type": "Feature", "geometry": {"type": "Point", "coordinates": [11.939179859395479, 57.70985873719189]}, "properties": {"id": 147, "height": 3.9}}, {"type": "Feature", "geometry": {"type": "Point", "coordinates": [11.939188238573168, 57.709858939919336]}, "properties": {"id": 148, "height": 3.9}}, {"type": "Feature", "geometry": {"type": "Point", "coordinates": [11.939196617750973, 57.70985914264624]}, "properties": {"id": 149, "height": 3.9}}, {"type": "Feature", "geometry": {"type": "Point", "coordinates": [11.939204996928888, 57.70985934537255]}, "properties": {"id": 150, "height": 3.9}}, {"type": "Feature", "geometry": {"type": "Point", "coordinates": [11.939213376106917, 57.70985954809832]}, "properties": {"id": 151, "height": 3.9}}, {"type": "Feature", "geometry": {"type": "Point", "coordinates": [11.939221755285057, 57.709859750823554]}, "properties": {"id": 152, "height": 3.9}}, {"type": "Feature", "geometry": {"type": "Point", "coordinates": [11.939406097232592, 57.709864210638294]}, "properties": {"id": 153, "height": 2.6}}, {"type": "Feature", "geometry": {"type": "Point", "coordinates": [11.939414476413315, 57.70986441335077]}, "properties": {"id": 154, "height": 2.6}}, {"type": "Feature", "geometry": {"type": "Point", "coordinates": [11.939422855594154, 57.709864616062696]}, "properties": {"id": 155, "height": 2.6}}, {"type": "Feature", "geometry": {"type": "Point", "coordinates": [11.939431234775105, 57.70986481877408]}, "properties": {"id": 156, "height": 2.6}}, {"type": "Feature", "geometry": {"type": "Point", "coordinates": [11.940285911822315, 57.70988549242392]}, "properties": {"id": 157, "height": 4.2}}, {"type": "Feature", "geometry": {"type": "Point", "coordinates": [11.939129963102237, 57.70985303599224]}, "properties": {"id": 158, "height": 3.9}}, {"type": "Feature", "geometry": {"type": "Point", "coordinates": [11.939138342278222, 57.70985323872294]}, "properties": {"id": 159, "height": 3.9}}, {"type": "Feature", "geometry": {"type": "Point", "coordinates": [11.939146721454318, 57.70985344145314]}, "properties": {"id": 160, "height": 3.9}}, {"type": "Feature", "geometry": {"type": "Point", "coordinates": [11.939155100630527, 57.70985364418275]}, "properties": {"id": 161, "height": 3.9}}, {"type": "Feature", "geometry": {"type": "Point", "coordinates": [11.939163479806847, 57.70985384691182]}, "properties": {"id": 162, "height": 3.9}}, {"type": "Feature", "geometry": {"type": "Point", "coordinates": [11.939171858983281, 57.709854049640334]}, "properties": {"id": 163, "height": 3.9}}, {"type": "Feature", "geometry": {"type": "Point", "coordinates": [11.939180238159828, 57.709854252368295]}, "properties": {"id": 164, "height": 3.9}}, {"type": "Feature", "geometry": {"type": "Point", "coordinates": [11.939188617336486, 57.70985445509569]}, "properties": {"id": 165, "height": 3.9}}, {"type": "Feature", "geometry": {"type": "Point", "coordinates": [11.939196996513257, 57.70985465782254]}, "properties": {"id": 166, "height": 3.9}}, {"type": "Feature", "geometry": {"type": "Point", "coordinates": [11.939205375690142, 57.709854860548845]}, "properties": {"id": 167, "height": 3.9}}, {"type": "Feature", "geometry": {"type": "Point", "coordinates": [11.939213754867136, 57.70985506327459]}, "properties": {"id": 168, "height": 3.9}}, {"type": "Feature", "geometry": {"type": "Point", "coordinates": [11.939222134044243, 57.709855265999785]}, "properties": {"id": 169, "height": 3.9}}, {"type": "Feature", "geometry": {"type": "Point", "coordinates": [11.939230513221464, 57.709855468724406]}, "properties": {"id": 170, "height": 3.9}}, {"type": "Feature", "geometry": {"type": "Point", "coordinates": [11.939238892398796, 57.70985567144849]}, "properties": {"id": 171, "height": 3.9}}, {"type": "Feature", "geometry": {"type": "Point", "coordinates": [11.93939809678947, 57.709859523100754]}, "properties": {"id": 172, "height": 2.6}}, {"type": "Feature", "geometry": {"type": "Point", "coordinates": [11.93940647596905, 57.709859725813736]}, "properties": {"id": 173, "height": 2.6}}, {"type": "Feature", "geometry": {"type": "Point", "coordinates": [11.939414855148744, 57.7098599285262]}, "properties": {"id": 174, "height": 2.6}}, {"type": "Feature", "geometry": {"type": "Point", "coordinates": [11.939121962697834, 57.709848348437596]}, "properties": {"id": 175, "height": 3.9}}, {"type": "Feature", "geometry": {"type": "Point", "coordinates": [11.939130341872673, 57.709848551168825]}, "properties": {"id": 176, "height": 3.9}}, {"type": "Feature", "geometry": {"type": "Point", "coordinates": [11.939138721047625, 57.709848753899514]}, "properties": {"id": 177, "height": 3.9}}, {"type": "Feature", "geometry": {"type": "Point", "coordinates": [11.939147100222687, 57.70984895662968]}, "properties": {"id": 178, "height": 3.9}}, {"type": "Feature", "geometry": {"type": "Point", "coordinates": [11.939155479397863, 57.70984915935926]}, "properties": {"id": 179, "height": 3.9}}, {"type": "Feature", "geometry": {"type": "Point", "coordinates": [11.939163858573151, 57.70984936208828]}, "properties": {"id": 180, "height": 3.9}}, {"type": "Feature", "geometry": {"type": "Point", "coordinates": [11.939172237748553, 57.70984956481676]}, "properties": {"id": 181, "height": 3.9}}, {"type": "Feature", "geometry": {"type": "Point", "coordinates": [11.939180616924066, 57.70984976754468]}, "properties": {"id": 182, "height": 3.9}}, {"type": "Feature", "geometry": {"type": "Point", "coordinates": [11.93918899609969, 57.70984997027206]}, "properties": {"id": 183, "height": 3.9}}, {"type": "Feature", "geometry": {"type": "Point", "coordinates": [11.939197375275429, 57.709850172998884]}, "properties": {"id": 184, "height": 3.9}}, {"type": "Feature", "geometry": {"type": "Point", "coordinates": [11.93920575445128, 57.70985037572514]}, "properties": {"id": 185, "height": 3.9}}, {"type": "Feature", "geometry": {"type": "Point", "coordinates": [11.93921413362724, 57.709850578450826]}, "properties": {"id": 186, "height": 3.9}}, {"type": "Feature", "geometry": {"type": "Point", "coordinates": [11.939222512803315, 57.709850781176]}, "properties": {"id": 187, "height": 3.9}}, {"type": "Feature", "geometry": {"type": "Point", "coordinates": [11.939122341469188, 57.709843863614246]}, "properties": {"id": 188, "height": 3.9}}, {"type": "Feature", "geometry": {"type": "Point", "coordinates": [11.939130720642995, 57.70984406634545]}, "properties": {"id": 189, "height": 3.9}}, {"type": "Feature", "geometry": {"type": "Point", "coordinates": [11.939139099816913, 57.7098442690761]}, "properties": {"id": 190, "height": 3.9}}, {"type": "Feature", "geometry": {"type": "Point", "coordinates": [11.939147478990943, 57.70984447180621]}, "properties": {"id": 191, "height": 3.9}}, {"type": "Feature", "geometry": {"type": "Point", "coordinates": [11.939155858165085, 57.70984467453576]}, "properties": {"id": 192, "height": 3.9}}, {"type": "Feature", "geometry": {"type": "Point", "coordinates": [11.939164237339343, 57.70984487726476]}, "properties": {"id": 193, "height": 3.9}}, {"type": "Feature", "geometry": {"type": "Point", "coordinates": [11.939172616513709, 57.7098450799932]}, "properties": {"id": 194, "height": 3.9}}, {"type": "Feature", "geometry": {"type": "Point", "coordinates": [11.93918099568819, 57.709845282721076]}, "properties": {"id": 195, "height": 3.9}}, {"type": "Feature", "geometry": {"type": "Point", "coordinates": [11.939189374862782, 57.70984548544841]}, "properties": {"id": 196, "height": 3.9}}, {"type": "Feature", "geometry": {"type": "Point", "coordinates": [11.939197754037485, 57.709845688175214]}, "properties": {"id": 197, "height": 3.9}}, {"type": "Feature", "geometry": {"type": "Point", "coordinates": [11.939206133212304, 57.70984589090144]}, "properties": {"id": 198, "height": 3.9}}, {"type": "Feature", "geometry": {"type": "Point", "coordinates": [11.939214512387233, 57.709846093627085]}, "properties": {"id": 199, "height": 3.9}}, {"type": "Feature", "geometry": {"type": "Point", "coordinates": [11.939222891562276, 57.70984629635222]}, "properties": {"id": 200, "height": 3.9}}, {"type": "Feature", "geometry": {"type": "Point", "coordinates": [11.939122720240432, 57.70983937879087]}, "properties": {"id": 201, "height": 3.9}}, {"type": "Feature", "geometry": {"type": "Point", "coordinates": [11.939131099413204, 57.70983958152203]}, "properties": {"id": 202, "height": 3.9}}, {"type": "Feature", "geometry": {"type": "Point", "coordinates": [11.939139478586089, 57.70983978425267]}, "properties": {"id": 203, "height": 3.9}}, {"type": "Feature", "geometry": {"type": "Point", "coordinates": [11.939147857759089, 57.70983998698273]}, "properties": {"id": 204, "height": 3.9}}, {"type": "Feature", "geometry": {"type": "Point", "coordinates": [11.939156236932197, 57.70984018971225]}, "properties": {"id": 205, "height": 3.9}}, {"type": "Feature", "geometry": {"type": "Point", "coordinates": [11.939164616105419, 57.709840392441215]}, "properties": {"id": 206, "height": 3.9}}, {"type": "Feature", "geometry": {"type": "Point", "coordinates": [11.939172995278756, 57.7098405951696]}, "properties": {"id": 207, "height": 3.9}}, {"type": "Feature", "geometry": {"type": "Point", "coordinates": [11.939181374452202, 57.709840797897456]}, "properties": {"id": 208, "height": 3.9}}, {"type": "Feature", "geometry": {"type": "Point", "coordinates": [11.939189753625762, 57.70984100062477]}, "properties": {"id": 209, "height": 3.9}}, {"type": "Feature", "geometry": {"type": "Point", "coordinates": [11.939198132799433, 57.709841203351516]}, "properties": {"id": 210, "height": 3.9}}, {"type": "Feature", "geometry": {"type": "Point", "coordinates": [11.939206511973218, 57.70984140607771]}, "properties": {"id": 211, "height": 3.9}}, {"type": "Feature", "geometry": {"type": "Point", "coordinates": [11.939214891147115, 57.70984160880334]}, "properties": {"id": 212, "height": 3.9}}, {"type": "Feature", "geometry": {"type": "Point", "coordinates": [11.939223270321124, 57.70984181152843]}, "properties": {"id": 213, "height": 3.9}}, {"type": "Feature", "geometry": {"type": "Point", "coordinates": [11.9391314781833, 57.70983509669864]}, "properties": {"id": 214, "height": 3.9}}, {"type": "Feature", "geometry": {"type": "Point", "coordinates": [11.939139857355155, 57.70983529942923]}, "properties": {"id": 215, "height": 3.9}}, {"type": "Feature", "geometry": {"type": "Point", "coordinates": [11.939148236527119, 57.709835502159265]}, "properties": {"id": 216, "height": 3.9}}, {"type": "Feature", "geometry": {"type": "Point", "coordinates": [11.939156615699195, 57.70983570488875]}, "properties": {"id": 217, "height": 3.9}}, {"type": "Feature", "geometry": {"type": "Point", "coordinates": [11.939164994871385, 57.70983590761767]}, "properties": {"id": 218, "height": 3.9}}, {"type": "Feature", "geometry": {"type": "Point", "coordinates": [11.939173374043687, 57.709836110346046]}, "properties": {"id": 219, "height": 3.9}}, {"type": "Feature", "geometry": {"type": "Point", "coordinates": [11.9391817532161, 57.709836313073865]}, "properties": {"id": 220, "height": 3.9}}, {"type": "Feature", "geometry": {"type": "Point", "coordinates": [11.939190132388628, 57.70983651580112]}, "properties": {"id": 221, "height": 3.9}}, {"type": "Feature", "geometry": {"type": "Point", "coordinates": [11.939198511561267, 57.70983671852783]}, "properties": {"id": 222, "height": 3.9}}, {"type": "Feature", "geometry": {"type": "Point", "coordinates": [11.939206890734019, 57.70983692125399]}, "properties": {"id": 223, "height": 3.9}}, {"type": "Feature", "geometry": {"type": "Point", "coordinates": [11.939131856953287, 57.70983061187521]}, "properties": {"id": 224, "height": 3.9}}, {"type": "Feature", "geometry": {"type": "Point", "coordinates": [11.939140236124107, 57.70983081460578]}, "properties": {"id": 225, "height": 3.9}}, {"type": "Feature", "geometry": {"type": "Point", "coordinates": [11.93914861529504, 57.70983101733577]}, "properties": {"id": 226, "height": 3.9}}, {"type": "Feature", "geometry": {"type": "Point", "coordinates": [11.939156994466083, 57.709831220065226]}, "properties": {"id": 227, "height": 3.9}}, {"type": "Feature", "geometry": {"type": "Point", "coordinates": [11.93916537363724, 57.70983142279412]}, "properties": {"id": 228, "height": 3.9}}, {"type": "Feature", "geometry": {"type": "Point", "coordinates": [11.939173752808507, 57.70983162552244]}, "properties": {"id": 229, "height": 3.9}}, {"type": "Feature", "geometry": {"type": "Point", "coordinates": [11.939182131979889, 57.70983182825023]}, "properties": {"id": 230, "height": 3.9}}, {"type": "Feature", "geometry": {"type": "Point", "coordinates": [11.93913223572316, 57.7098261270518]}, "properties": {"id": 231, "height": 3.9}}, {"type": "Feature", "geometry": {"type": "Point", "coordinates": [11.939140614892947, 57.709826329782324]}, "properties": {"id": 232, "height": 3.9}}, {"type": "Feature", "geometry": {"type": "Point", "coordinates": [11.939148994062846, 57.70982653251228]}, "properties": {"id": 233, "height": 3.9}}, {"type": "Feature", "geometry": {"type": "Point", "coordinates": [11.939157373232858, 57.7098267352417]}, "properties": {"id": 234, "height": 3.9}}, {"type": "Feature", "geometry": {"type": "Point", "coordinates": [11.940188012001208, 57.70985166673433]}, "properties": {"id": 235, "height": 4.0}}, {"type": "Feature", "geometry": {"type": "Point", "coordinates": [11.939132614492921, 57.70982164222839]}, "properties": {"id": 236, "height": 3.9}}, {"type": "Feature", "geometry": {"type": "Point", "coordinates": [11.939140993661676, 57.70982184495885]}, "properties": {"id": 237, "height": 3.9}}, {"type": "Feature", "geometry": {"type": "Point", "coordinates": [11.93880772104774, 57.709791311197044]}, "properties": {"id": 238, "height": 4.2}}, {"type": "Feature", "geometry": {"type": "Point", "coordinates": [11.938816100206946, 57.70979151394894]}, "properties": {"id": 239, "height": 4.2}}, {"type": "Feature", "geometry": {"type": "Point", "coordinates": [11.939335608297185, 57.70980408348571]}, "properties": {"id": 240, "height": 4.0}}, {"type": "Feature", "geometry": {"type": "Point", "coordinates": [11.939343987463472, 57.70980428620273]}, "properties": {"id": 241, "height": 4.0}}, {"type": "Feature", "geometry": {"type": "Point", "coordinates": [11.939352366629869, 57.709804488919175]}, "properties": {"id": 242, "height": 4.0}}, {"type": "Feature", "geometry": {"type": "Point", "coordinates": [11.939360745796382, 57.70980469163507]}, "properties": {"id": 243, "height": 4.0}}, {"type": "Feature", "geometry": {"type": "Point", "coordinates": [11.939369124963005, 57.70980489435043]}, "properties": {"id": 244, "height": 4.0}}, {"type": "Feature", "geometry": {"type": "Point", "coordinates": [11.93937750412974, 57.70980509706523]}, "properties": {"id": 245, "height": 4.0}}, {"type": "Feature", "geometry": {"type": "Point", "coordinates": [11.939385883296588, 57.709805299779454]}, "properties": {"id": 246, "height": 4.0}}, {"type": "Feature", "geometry": {"type": "Point", "coordinates": [11.93939426246355, 57.70980550249317]}, "properties": {"id": 247, "height": 4.0}}, {"type": "Feature", "geometry": {"type": "Point", "coordinates": [11.938808099857111, 57.70978682637494]}, "properties": {"id": 248, "height": 4.2}}, {"type": "Feature", "geometry": {"type": "Point", "coordinates": [11.938816479015284, 57.70978702912683]}, "properties": {"id": 249, "height": 4.2}}, {"type": "Feature", "geometry": {"type": "Point", "coordinates": [11.939344366206734, 57.70979980137839]}, "properties": {"id": 250, "height": 4.0}}, {"type": "Feature", "geometry": {"type": "Point", "coordinates": [11.9393527453721, 57.70980000409481]}, "properties": {"id": 251, "height": 4.0}}, {"type": "Feature", "geometry": {"type": "Point", "coordinates": [11.939361124537578, 57.70980020681068]}, "properties": {"id": 252, "height": 4.0}}, {"type": "Feature", "geometry": {"type": "Point", "coordinates": [11.939369503703167, 57.709800409526004]}, "properties": {"id": 253, "height": 4.0}}, {"type": "Feature", "geometry": {"type": "Point", "coordinates": [11.93937788286887, 57.70980061224077]}, "properties": {"id": 254, "height": 4.0}}, {"type": "Feature", "geometry": {"type": "Point", "coordinates": [11.939386262034686, 57.70980081495496]}, "properties": {"id": 255, "height": 4.0}}, {"type": "Feature", "geometry": {"type": "Point", "coordinates": [11.939394641200613, 57.70980101766862]}, "properties": {"id": 256, "height": 4.0}}, {"type": "Feature", "geometry": {"type": "Point", "coordinates": [11.939403020366653, 57.70980122038171]}, "properties": {"id": 257, "height": 4.0}}, {"type": "Feature", "geometry": {"type": "Point", "coordinates": [11.939411399532803, 57.70980142309427]}, "properties": {"id": 258, "height": 4.0}}, {"type": "Feature", "geometry": {"type": "Point", "coordinates": [11.939419778699067, 57.70980162580627]}, "properties": {"id": 259, "height": 4.0}}, {"type": "Feature", "geometry": {"type": "Point", "coordinates": [11.939034715948589, 57.7097878156582]}, "properties": {"id": 260, "height": 4.1}}, {"type": "Feature", "geometry": {"type": "Point", "coordinates": [11.939043095108762, 57.70978801839511]}, "properties": {"id": 261, "height": 4.1}}, {"type": "Feature", "geometry": {"type": "Point", "coordinates": [11.939353124114218, 57.709795519270436]}, "properties": {"id": 262, "height": 4.0}}, {"type": "Feature", "geometry": {"type": "Point", "coordinates": [11.939361503278663, 57.70979572198627]}, "properties": {"id": 263, "height": 4.0}}, {"type": "Feature", "geometry": {"type": "Point", "coordinates": [11.939369882443218, 57.70979592470156]}, "properties": {"id": 264, "height": 4.0}}, {"type": "Feature", "geometry": {"type": "Point", "coordinates": [11.939378261607889, 57.70979612741628]}, "properties": {"id": 265, "height": 4.0}}, {"type": "Feature", "geometry": {"type": "Point", "coordinates": [11.939386640772671, 57.70979633013046]}, "properties": {"id": 266, "height": 4.0}}, {"type": "Feature", "geometry": {"type": "Point", "coordinates": [11.939395019937566, 57.70979653284408]}, "properties": {"id": 267, "height": 4.0}}, {"type": "Feature", "geometry": {"type": "Point", "coordinates": [11.939403399102574, 57.70979673555714]}, "properties": {"id": 268, "height": 4.0}}, {"type": "Feature", "geometry": {"type": "Point", "coordinates": [11.939411778267692, 57.709796938269655]}, "properties": {"id": 269, "height": 4.0}}, {"type": "Feature", "geometry": {"type": "Point", "coordinates": [11.939420157432922, 57.70979714098162]}, "properties": {"id": 270, "height": 4.0}}, {"type": "Feature", "geometry": {"type": "Point", "coordinates": [11.939428536598268, 57.70979734369301]}, "properties": {"id": 271, "height": 4.0}}, {"type": "Feature", "geometry": {"type": "Point", "coordinates": [11.939436915763723, 57.70979754640386]}, "properties": {"id": 272, "height": 4.0}}, {"type": "Feature", "geometry": {"type": "Point", "coordinates": [11.939445294929293, 57.70979774911416]}, "properties": {"id": 273, "height": 4.0}}, {"type": "Feature", "geometry": {"type": "Point", "coordinates": [11.939026715570815, 57.709783128097776]}, "properties": {"id": 274, "height": 4.1}}, {"type": "Feature", "geometry": {"type": "Point", "coordinates": [11.939035094729844, 57.70978333083517]}, "properties": {"id": 275, "height": 4.1}}, {"type": "Feature", "geometry": {"type": "Point", "coordinates": [11.939043473888987, 57.70978353357202]}, "properties": {"id": 276, "height": 4.1}}, {"type": "Feature", "geometry": {"type": "Point", "coordinates": [11.939361882019634, 57.70979123716189]}, "properties": {"id": 277, "height": 4.0}}, {"type": "Feature", "geometry": {"type": "Point", "coordinates": [11.939370261183159, 57.70979143987712]}, "properties": {"id": 278, "height": 4.0}}, {"type": "Feature", "geometry": {"type": "Point", "coordinates": [11.939378640346796, 57.70979164259184]}, "properties": {"id": 279, "height": 4.0}}, {"type": "Feature", "geometry": {"type": "Point", "coordinates": [11.939387019510544, 57.709791845305965]}, "properties": {"id": 280, "height": 4.0}}, {"type": "Feature", "geometry": {"type": "Point", "coordinates": [11.939395398674407, 57.70979204801954]}, "properties": {"id": 281, "height": 4.0}}, {"type": "Feature", "geometry": {"type": "Point", "coordinates": [11.939403777838377, 57.70979225073258]}, "properties": {"id": 282, "height": 4.0}}, {"type": "Feature", "geometry": {"type": "Point", "coordinates": [11.939412157002467, 57.70979245344504]}, "properties": {"id": 283, "height": 4.0}}, {"type": "Feature", "geometry": {"type": "Point", "coordinates": [11.939420536166663, 57.70979265615697]}, "properties": {"id": 284, "height": 4.0}}, {"type": "Feature", "geometry": {"type": "Point", "coordinates": [11.939428915330975, 57.70979285886834]}, "properties": {"id": 285, "height": 4.0}}, {"type": "Feature", "geometry": {"type": "Point", "coordinates": [11.939437294495399, 57.70979306157915]}, "properties": {"id": 286, "height": 4.0}}, {"type": "Feature", "geometry": {"type": "Point", "coordinates": [11.939445673659936, 57.70979326428942]}, "properties": {"id": 287, "height": 4.0}}, {"type": "Feature", "geometry": {"type": "Point", "coordinates": [11.939454052824582, 57.70979346699912]}, "properties": {"id": 288, "height": 4.0}}, {"type": "Feature", "geometry": {"type": "Point", "coordinates": [11.939462431989343, 57.709793669708276]}, "properties": {"id": 289, "height": 4.0}}, {"type": "Feature", "geometry": {"type": "Point", "coordinates": [11.946785864926017, 57.70997062566781]}, "properties": {"id": 290, "height": 5.1}}, {"type": "Feature", "geometry": {"type": "Point", "coordinates": [11.939027094352992, 57.70977864327475]}, "properties": {"id": 291, "height": 4.1}}, {"type": "Feature", "geometry": {"type": "Point", "coordinates": [11.93903547351099, 57.70977884601212]}, "properties": {"id": 292, "height": 4.1}}, {"type": "Feature", "geometry": {"type": "Point", "coordinates": [11.939043852669098, 57.709779048748935]}, "properties": {"id": 293, "height": 4.1}}, {"type": "Feature", "geometry": {"type": "Point", "coordinates": [11.939370639922984, 57.70978695505268]}, "properties": {"id": 294, "height": 4.0}}, {"type": "Feature", "geometry": {"type": "Point", "coordinates": [11.939379019085589, 57.70978715776734]}, "properties": {"id": 295, "height": 4.0}}, {"type": "Feature", "geometry": {"type": "Point", "coordinates": [11.939387398248305, 57.70978736048144]}, "properties": {"id": 296, "height": 4.0}}, {"type": "Feature", "geometry": {"type": "Point", "coordinates": [11.939395777411134, 57.709787563194986]}, "properties": {"id": 297, "height": 4.0}}, {"type": "Feature", "geometry": {"type": "Point", "coordinates": [11.939404156574074, 57.709787765908]}, "properties": {"id": 298, "height": 4.0}}, {"type": "Feature", "geometry": {"type": "Point", "coordinates": [11.939412535737128, 57.70978796862043]}, "properties": {"id": 299, "height": 4.0}}, {"type": "Feature", "geometry": {"type": "Point", "coordinates": [11.939420914900294, 57.709788171332306]}, "properties": {"id": 300, "height": 4.0}}, {"type": "Feature", "geometry": {"type": "Point", "coordinates": [11.939429294063572, 57.70978837404364]}, "properties": {"id": 301, "height": 4.0}}, {"type": "Feature", "geometry": {"type": "Point", "coordinates": [11.939437673226962, 57.70978857675442]}, "properties": {"id": 302, "height": 4.0}}, {"type": "Feature", "geometry": {"type": "Point", "coordinates": [11.939446052390466, 57.709788779464645]}, "properties": {"id": 303, "height": 4.0}}, {"type": "Feature", "geometry": {"type": "Point", "coordinates": [11.93945443155408, 57.70978898217432]}, "properties": {"id": 304, "height": 4.0}}, {"type": "Feature", "geometry": {"type": "Point", "coordinates": [11.939462810717808, 57.709789184883434]}, "properties": {"id": 305, "height": 4.0}}, {"type": "Feature", "geometry": {"type": "Point", "coordinates": [11.939019093978207, 57.709773955713835]}, "properties": {"id": 306, "height": 4.1}}, {"type": "Feature", "geometry": {"type": "Point", "coordinates": [11.939027473135058, 57.709774158451715]}, "properties": {"id": 307, "height": 4.1}}, {"type": "Feature", "geometry": {"type": "Point", "coordinates": [11.93903585229202, 57.70977436118906]}, "properties": {"id": 308, "height": 4.1}}, {"type": "Feature", "geometry": {"type": "Point", "coordinates": [11.939044231449095, 57.70977456392585]}, "properties": {"id": 309, "height": 4.1}}, {"type": "Feature", "geometry": {"type": "Point", "coordinates": [11.93937939782427, 57.70978267294286]}, "properties": {"id": 310, "height": 4.0}}, {"type": "Feature", "geometry": {"type": "Point", "coordinates": [11.939387776985953, 57.70978287565692]}, "properties": {"id": 311, "height": 4.0}}, {"type": "Feature", "geometry": {"type": "Point", "coordinates": [11.93939615614775, 57.709783078370435]}, "properties": {"id": 312, "height": 4.0}}, {"type": "Feature", "geometry": {"type": "Point", "coordinates": [11.939404535309656, 57.70978328108338]}, "properties": {"id": 313, "height": 4.0}}, {"type": "Feature", "geometry": {"type": "Point", "coordinates": [11.939412914471678, 57.709783483795796]}, "properties": {"id": 314, "height": 4.0}}, {"type": "Feature", "geometry": {"type": "Point", "coordinates": [11.93942129363381, 57.709783686507656]}, "properties": {"id": 315, "height": 4.0}}, {"type": "Feature", "geometry": {"type": "Point", "coordinates": [11.939429672796056, 57.70978388921895]}, "properties": {"id": 316, "height": 4.0}}, {"type": "Feature", "geometry": {"type": "Point", "coordinates": [11.939438051958414, 57.70978409192969]}, "properties": {"id": 317, "height": 4.0}}, {"type": "Feature", "geometry": {"type": "Point", "coordinates": [11.939446431120883, 57.709784294639874]}, "properties": {"id": 318, "height": 4.0}}, {"type": "Feature", "geometry": {"type": "Point", "coordinates": [11.939454810283467, 57.7097844973495]}, "properties": {"id": 319, "height": 4.0}}, {"type": "Feature", "geometry": {"type": "Point", "coordinates": [11.93946318944616, 57.709784700058606]}, "properties": {"id": 320, "height": 4.0}}, {"type": "Feature", "geometry": {"type": "Point", "coordinates": [11.93902785191701, 57.70976967362872]}, "properties": {"id": 321, "height": 4.1}}, {"type": "Feature", "geometry": {"type": "Point", "coordinates": [11.93903623107294, 57.70976987636602]}, "properties": {"id": 322, "height": 4.1}}, {"type": "Feature", "geometry": {"type": "Point", "coordinates": [11.939044610228981, 57.70977007910278]}, "properties": {"id": 323, "height": 4.1}}, {"type": "Feature", "geometry": {"type": "Point", "coordinates": [11.939228951690351, 57.709774539171036]}, "properties": {"id": 324, "height": 3.9}}, {"type": "Feature", "geometry": {"type": "Point", "coordinates": [11.939237330848979, 57.70977474189506]}, "properties": {"id": 325, "height": 3.9}}, {"type": "Feature", "geometry": {"type": "Point", "coordinates": [11.93924571000772, 57.7097749446185]}, "properties": {"id": 326, "height": 3.9}}, {"type": "Feature", "geometry": {"type": "Point", "coordinates": [11.93938815572349, 57.7097783908324]}, "properties": {"id": 327, "height": 4.0}}, {"type": "Feature", "geometry": {"type": "Point", "coordinates": [11.939396534884251, 57.70977859354589]}, "properties": {"id": 328, "height": 4.0}}, {"type": "Feature", "geometry": {"type": "Point", "coordinates": [11.939404914045127, 57.709778796258796]}, "properties": {"id": 329, "height": 4.0}}, {"type": "Feature", "geometry": {"type": "Point", "coordinates": [11.939413293206115, 57.70977899897118]}, "properties": {"id": 330, "height": 4.0}}, {"type": "Feature", "geometry": {"type": "Point", "coordinates": [11.939421672367216, 57.709779201682984]}, "properties": {"id": 331, "height": 4.0}}, {"type": "Feature", "geometry": {"type": "Point", "coordinates": [11.939430051528428, 57.70977940439426]}, "properties": {"id": 332, "height": 4.0}}, {"type": "Feature", "geometry": {"type": "Point", "coordinates": [11.939438430689751, 57.709779607104956]}, "properties": {"id": 333, "height": 4.0}}, {"type": "Feature", "geometry": {"type": "Point", "coordinates": [11.939446809851187, 57.70977980981511]}, "properties": {"id": 334, "height": 4.0}}, {"type": "Feature", "geometry": {"type": "Point", "coordinates": [11.939455189012739, 57.709780012524725]}, "properties": {"id": 335, "height": 4.0}}, {"type": "Feature", "geometry": {"type": "Point", "coordinates": [11.9394635681744, 57.70978021523375]}, "properties": {"id": 336, "height": 4.0}}, {"type": "Feature", "geometry": {"type": "Point", "coordinates": [11.939471947336173, 57.709780417942255]}, "properties": {"id": 337, "height": 4.0}}, {"type": "Feature", "geometry": {"type": "Point", "coordinates": [11.93966466808799, 57.709785080084686]}, "properties": {"id": 338, "height": 4.0}}, {"type": "Feature", "geometry": {"type": "Point", "coordinates": [11.940200934840657, 57.70979805146041]}, "properties": {"id": 339, "height": 4.0}}, {"type": "Feature", "geometry": {"type": "Point", "coordinates": [11.94020931401232, 57.70979825412016]}, "properties": {"id": 340, "height": 4.0}}, {"type": "Feature", "geometry": {"type": "Point", "coordinates": [11.940217693184094, 57.709798456779346]}, "properties": {"id": 341, "height": 4.0}}, {"type": "Feature", "geometry": {"type": "Point", "coordinates": [11.939036609853746, 57.709765391542945]}, "properties": {"id": 342, "height": 4.1}}, {"type": "Feature", "geometry": {"type": "Point", "coordinates": [11.939044989008758, 57.709765594279666]}, "properties": {"id": 343, "height": 4.1}}, {"type": "Feature", "geometry": {"type": "Point", "coordinates": [11.939187434661115, 57.70976904071902]}, "properties": {"id": 344, "height": 3.9}}, {"type": "Feature", "geometry": {"type": "Point", "coordinates": [11.939195813818147, 57.70976924344575]}, "properties": {"id": 345, "height": 3.9}}, {"type": "Feature", "geometry": {"type": "Point", "coordinates": [11.939204192975293, 57.70976944617194]}, "properties": {"id": 346, "height": 3.9}}, {"type": "Feature", "geometry": {"type": "Point", "coordinates": [11.93921257213255, 57.70976964889757]}, "properties": {"id": 347, "height": 3.9}}, {"type": "Feature", "geometry": {"type": "Point", "coordinates": [11.93922095128992, 57.70976985162265]}, "properties": {"id": 348, "height": 3.9}}, {"type": "Feature", "geometry": {"type": "Point", "coordinates": [11.9392293304474, 57.709770054347175]}, "properties": {"id": 349, "height": 3.9}}, {"type": "Feature", "geometry": {"type": "Point", "coordinates": [11.939237709604996, 57.709770257071135]}, "properties": {"id": 350, "height": 3.9}}, {"type": "Feature", "geometry": {"type": "Point", "coordinates": [11.939246088762703, 57.70977045979456]}, "properties": {"id": 351, "height": 3.9}}, {"type": "Feature", "geometry": {"type": "Point", "coordinates": [11.939396913620643, 57.70977410872133]}, "properties": {"id": 352, "height": 4.0}}, {"type": "Feature", "geometry": {"type": "Point", "coordinates": [11.939405292780485, 57.709774311434195]}, "properties": {"id": 353, "height": 4.0}}, {"type": "Feature", "geometry": {"type": "Point", "coordinates": [11.939413671940441, 57.709774514146545]}, "properties": {"id": 354, "height": 4.0}}, {"type": "Feature", "geometry": {"type": "Point", "coordinates": [11.939422051100507, 57.70977471685832]}, "properties": {"id": 355, "height": 4.0}}, {"type": "Feature", "geometry": {"type": "Point", "coordinates": [11.939430430260687, 57.70977491956955]}, "properties": {"id": 356, "height": 4.0}}, {"type": "Feature", "geometry": {"type": "Point", "coordinates": [11.939438809420977, 57.70977512228023]}, "properties": {"id": 357, "height": 4.0}}, {"type": "Feature", "geometry": {"type": "Point", "coordinates": [11.939447188581381, 57.70977532499034]}, "properties": {"id": 358, "height": 4.0}}, {"type": "Feature", "geometry": {"type": "Point", "coordinates": [11.939455567741899, 57.70977552769991]}, "properties": {"id": 359, "height": 4.0}}, {"type": "Feature", "geometry": {"type": "Point", "coordinates": [11.939463946902526, 57.709775730408914]}, "properties": {"id": 360, "height": 4.0}}, {"type": "Feature", "geometry": {"type": "Point", "coordinates": [11.93947232606327, 57.70977593311738]}, "properties": {"id": 361, "height": 4.0}}, {"type": "Feature", "geometry": {"type": "Point", "coordinates": [11.939824250915866, 57.709784446372346]}, "properties": {"id": 362, "height": 4.0}}, {"type": "Feature", "geometry": {"type": "Point", "coordinates": [11.940201313477887, 57.70979356663249]}, "properties": {"id": 363, "height": 4.0}}, {"type": "Feature", "geometry": {"type": "Point", "coordinates": [11.940209692648516, 57.709793769292205]}, "properties": {"id": 364, "height": 4.0}}, {"type": "Feature", "geometry": {"type": "Point", "coordinates": [11.940218071819256, 57.70979397195137]}, "properties": {"id": 365, "height": 4.0}}, {"type": "Feature", "geometry": {"type": "Point", "coordinates": [11.939036988634443, 57.70976090671987]}, "properties": {"id": 366, "height": 4.1}}, {"type": "Feature", "geometry": {"type": "Point", "coordinates": [11.939045367788419, 57.70976110945656]}, "properties": {"id": 367, "height": 4.1}}, {"type": "Feature", "geometry": {"type": "Point", "coordinates": [11.939145917644904, 57.709763542253484]}, "properties": {"id": 368, "height": 3.9}}, {"type": "Feature", "geometry": {"type": "Point", "coordinates": [11.939154296800343, 57.70976374498295]}, "properties": {"id": 369, "height": 3.9}}, {"type": "Feature", "geometry": {"type": "Point", "coordinates": [11.939162675955892, 57.70976394771186]}, "properties": {"id": 370, "height": 3.9}}, {"type": "Feature", "geometry": {"type": "Point", "coordinates": [11.939171055111556, 57.70976415044023]}, "properties": {"id": 371, "height": 3.9}}, {"type": "Feature", "geometry": {"type": "Point", "coordinates": [11.93917943426733, 57.70976435316805]}, "properties": {"id": 372, "height": 3.9}}, {"type": "Feature", "geometry": {"type": "Point", "coordinates": [11.939187813423215, 57.70976455589532]}, "properties": {"id": 373, "height": 3.9}}, {"type": "Feature", "geometry": {"type": "Point", "coordinates": [11.939196192579217, 57.709764758622015]}, "properties": {"id": 374, "height": 3.9}}, {"type": "Feature", "geometry": {"type": "Point", "coordinates": [11.93920457173533, 57.709764961348164]}, "properties": {"id": 375, "height": 3.9}}, {"type": "Feature", "geometry": {"type": "Point", "coordinates": [11.939212950891552, 57.70976516407377]}, "properties": {"id": 376, "height": 3.9}}, {"type": "Feature", "geometry": {"type": "Point", "coordinates": [11.93922133004789, 57.70976536679881]}, "properties": {"id": 377, "height": 3.9}}, {"type": "Feature", "geometry": {"type": "Point", "coordinates": [11.939229709204339, 57.7097655695233]}, "properties": {"id": 378, "height": 3.9}}, {"type": "Feature", "geometry": {"type": "Point", "coordinates": [11.9392380883609, 57.70976577224724]}, "properties": {"id": 379, "height": 3.9}}, {"type": "Feature", "geometry": {"type": "Point", "coordinates": [11.939246467517574, 57.7097659749706]}, "properties": {"id": 380, "height": 3.9}}, {"type": "Feature", "geometry": {"type": "Point", "coordinates": [11.93940567151573, 57.709769826609595]}, "properties": {"id": 381, "height": 4.0}}, {"type": "Feature", "geometry": {"type": "Point", "coordinates": [11.939414050674653, 57.709770029321895]}, "properties": {"id": 382, "height": 4.0}}, {"type": "Feature", "geometry": {"type": "Point", "coordinates": [11.939422429833686, 57.70977023203364]}, "properties": {"id": 383, "height": 4.0}}, {"type": "Feature", "geometry": {"type": "Point", "coordinates": [11.939430808992833, 57.70977043474483]}, "properties": {"id": 384, "height": 4.0}}, {"type": "Feature", "geometry": {"type": "Point", "coordinates": [11.939439188152091, 57.70977063745549]}, "properties": {"id": 385, "height": 4.0}}, {"type": "Feature", "geometry": {"type": "Point", "coordinates": [11.939447567311463, 57.70977084016556]}, "properties": {"id": 386, "height": 4.0}}, {"type": "Feature", "geometry": {"type": "Point", "coordinates": [11.939455946470947, 57.70977104287508]}, "properties": {"id": 387, "height": 4.0}}, {"type": "Feature", "geometry": {"type": "Point", "coordinates": [11.939464325630542, 57.70977124558407]}, "properties": {"id": 388, "height": 4.0}}, {"type": "Feature", "geometry": {"type": "Point", "coordinates": [11.93947270479025, 57.7097714482925]}, "properties": {"id": 389, "height": 4.0}}, {"type": "Feature", "geometry": {"type": "Point", "coordinates": [11.9402100712846, 57.70978928446425]}, "properties": {"id": 390, "height": 4.0}}, {"type": "Feature", "geometry": {"type": "Point", "coordinates": [11.939146296412058, 57.70975905742995]}, "properties": {"id": 391, "height": 3.9}}, {"type": "Feature", "geometry": {"type": "Point", "coordinates": [11.939154675566462, 57.709759260159395]}, "properties": {"id": 392, "height": 3.9}}, {"type": "Feature", "geometry": {"type": "Point", "coordinates": [11.939163054720979, 57.709759462888286]}, "properties": {"id": 393, "height": 3.9}}, {"type": "Feature", "geometry": {"type": "Point", "coordinates": [11.93917143387561, 57.70975966561662]}, "properties": {"id": 394, "height": 3.9}}, {"type": "Feature", "geometry": {"type": "Point", "coordinates": [11.93917981303035, 57.70975986834439]}, "properties": {"id": 395, "height": 3.9}}, {"type": "Feature", "geometry": {"type": "Point", "coordinates": [11.939188192185206, 57.70976007107161]}, "properties": {"id": 396, "height": 3.9}}, {"type": "Feature", "geometry": {"type": "Point", "coordinates": [11.939196571340172, 57.70976027379828]}, "properties": {"id": 397, "height": 3.9}}, {"type": "Feature", "geometry": {"type": "Point", "coordinates": [11.939204950495252, 57.70976047652441]}, "properties": {"id": 398, "height": 3.9}}, {"type": "Feature", "geometry": {"type": "Point", "coordinates": [11.93921332965044, 57.70976067924996]}, "properties": {"id": 399, "height": 3.9}}, {"type": "Feature", "geometry": {"type": "Point", "coordinates": [11.939221708805746, 57.709760881974965]}, "properties": {"id": 400, "height": 3.9}}, {"type": "Feature", "geometry": {"type": "Point", "coordinates": [11.939230087961164, 57.70976108469944]}, "properties": {"id": 401, "height": 3.9}}, {"type": "Feature", "geometry": {"type": "Point", "coordinates": [11.93923846711669, 57.70976128742335]}, "properties": {"id": 402, "height": 3.9}}, {"type": "Feature", "geometry": {"type": "Point", "coordinates": [11.939414429408751, 57.70976554449727]}, "properties": {"id": 403, "height": 4.0}}, {"type": "Feature", "geometry": {"type": "Point", "coordinates": [11.939422808566752, 57.70976574720897]}, "properties": {"id": 404, "height": 4.0}}, {"type": "Feature", "geometry": {"type": "Point", "coordinates": [11.939431187724866, 57.70976594992015]}, "properties": {"id": 405, "height": 4.0}}, {"type": "Feature", "geometry": {"type": "Point", "coordinates": [11.939439566883092, 57.709766152630735]}, "properties": {"id": 406, "height": 4.0}}, {"type": "Feature", "geometry": {"type": "Point", "coordinates": [11.939447946041431, 57.7097663553408]}, "properties": {"id": 407, "height": 4.0}}, {"type": "Feature", "geometry": {"type": "Point", "coordinates": [11.939456325199881, 57.70976655805029]}, "properties": {"id": 408, "height": 4.0}}, {"type": "Feature", "geometry": {"type": "Point", "coordinates": [11.939464704358445, 57.709766760759216]}, "properties": {"id": 409, "height": 4.0}}, {"type": "Feature", "geometry": {"type": "Point", "coordinates": [11.93947308351712, 57.70976696346761]}, "properties": {"id": 410, "height": 4.0}}, {"type": "Feature", "geometry": {"type": "Point", "coordinates": [11.939481462675905, 57.70976716617545]}, "properties": {"id": 411, "height": 4.0}}, {"type": "Feature", "geometry": {"type": "Point", "coordinates": [11.939146675179101, 57.70975457260642]}, "properties": {"id": 412, "height": 3.9}}, {"type": "Feature", "geometry": {"type": "Point", "coordinates": [11.939155054332472, 57.70975477533582]}, "properties": {"id": 413, "height": 3.9}}, {"type": "Feature", "geometry": {"type": "Point", "coordinates": [11.939163433485955, 57.70975497806469]}, "properties": {"id": 414, "height": 3.9}}, {"type": "Feature", "geometry": {"type": "Point", "coordinates": [11.939171812639552, 57.70975518079298]}, "properties": {"id": 415, "height": 3.9}}, {"type": "Feature", "geometry": {"type": "Point", "coordinates": [11.93918019179326, 57.70975538352073]}, "properties": {"id": 416, "height": 3.9}}, {"type": "Feature", "geometry": {"type": "Point", "coordinates": [11.939188570947083, 57.709755586247915]}, "properties": {"id": 417, "height": 3.9}}, {"type": "Feature", "geometry": {"type": "Point", "coordinates": [11.939196950101016, 57.70975578897455]}, "properties": {"id": 418, "height": 3.9}}, {"type": "Feature", "geometry": {"type": "Point", "coordinates": [11.939205329255062, 57.70975599170063]}, "properties": {"id": 419, "height": 3.9}}, {"type": "Feature", "geometry": {"type": "Point", "coordinates": [11.939213708409222, 57.70975619442616]}, "properties": {"id": 420, "height": 3.9}}, {"type": "Feature", "geometry": {"type": "Point", "coordinates": [11.939222087563493, 57.70975639715113]}, "properties": {"id": 421, "height": 3.9}}, {"type": "Feature", "geometry": {"type": "Point", "coordinates": [11.93942318729971, 57.70976126238429]}, "properties": {"id": 422, "height": 4.0}}, {"type": "Feature", "geometry": {"type": "Point", "coordinates": [11.93943156645679, 57.70976146509542]}, "properties": {"id": 423, "height": 4.0}}, {"type": "Feature", "geometry": {"type": "Point", "coordinates": [11.939439945613982, 57.709761667805985]}, "properties": {"id": 424, "height": 4.0}}, {"type": "Feature", "geometry": {"type": "Point", "coordinates": [11.938552134417248, 57.709735692581575]}, "properties": {"id": 425, "height": 2.1}}, {"type": "Feature", "geometry": {"type": "Point", "coordinates": [11.939147053946028, 57.7097500877829]}, "properties": {"id": 426, "height": 3.9}}, {"type": "Feature", "geometry": {"type": "Point", "coordinates": [11.93915543309837, 57.70975029051226]}, "properties": {"id": 427, "height": 3.9}}, {"type": "Feature", "geometry": {"type": "Point", "coordinates": [11.939163812250818, 57.70975049324108]}, "properties": {"id": 428, "height": 3.9}}, {"type": "Feature", "geometry": {"type": "Point", "coordinates": [11.939172191403383, 57.70975069596936]}, "properties": {"id": 429, "height": 3.9}}, {"type": "Feature", "geometry": {"type": "Point", "coordinates": [11.939180570556058, 57.70975089869706]}, "properties": {"id": 430, "height": 3.9}}, {"type": "Feature", "geometry": {"type": "Point", "coordinates": [11.939188949708846, 57.7097511014242]}, "properties": {"id": 431, "height": 3.9}}, {"type": "Feature", "geometry": {"type": "Point", "coordinates": [11.939197328861747, 57.709751304150814]}, "properties": {"id": 432, "height": 3.9}}, {"type": "Feature", "geometry": {"type": "Point", "coordinates": [11.939431945188597, 57.70975698027069]}, "properties": {"id": 433, "height": 4.0}}, {"type": "Feature", "geometry": {"type": "Point", "coordinates": [11.939440324344758, 57.70975718298122]}, "properties": {"id": 434, "height": 4.0}}, {"type": "Feature", "geometry": {"type": "Point", "coordinates": [11.939147432712845, 57.70974560295937]}, "properties": {"id": 435, "height": 3.9}}, {"type": "Feature", "geometry": {"type": "Point", "coordinates": [11.939155811864152, 57.70974580568869]}, "properties": {"id": 436, "height": 3.9}}, {"type": "Feature", "geometry": {"type": "Point", "coordinates": [11.93916419101557, 57.709746008417476]}, "properties": {"id": 437, "height": 3.9}}, {"type": "Feature", "geometry": {"type": "Point", "coordinates": [11.9391725701671, 57.7097462111457]}, "properties": {"id": 438, "height": 3.9}}, {"type": "Feature", "geometry": {"type": "Point", "coordinates": [11.939180949318743, 57.709746413873376]}, "properties": {"id": 439, "height": 3.9}}, {"type": "Feature", "geometry": {"type": "Point", "coordinates": [11.939440703075423, 57.70975269815646]}, "properties": {"id": 440, "height": 4.0}}, {"type": "Feature", "geometry": {"type": "Point", "coordinates": [11.939147811479549, 57.70974111813582]}, "properties": {"id": 441, "height": 3.9}}, {"type": "Feature", "geometry": {"type": "Point", "coordinates": [11.939156190629825, 57.70974132086511]}, "properties": {"id": 442, "height": 3.9}}, {"type": "Feature", "geometry": {"type": "Point", "coordinates": [11.951130488341049, 57.71002597011052]}, "properties": {"id": 443, "height": 17.8}}, {"type": "Feature", "geometry": {"type": "Point", "coordinates": [11.939626938054658, 57.70973473351956]}, "properties": {"id": 444, "height": 4.0}}, {"type": "Feature", "geometry": {"type": "Point", "coordinates": [11.939804036338122, 57.70972553557355]}, "properties": {"id": 445, "height": 4.0}}, {"type": "Feature", "geometry": {"type": "Point", "coordinates": [11.940080548407105, 57.70973222391388]}, "properties": {"id": 446, "height": 4.1}}, {"type": "Feature", "geometry": {"type": "Point", "coordinates": [11.946633460148812, 57.70988605591431]}, "properties": {"id": 447, "height": 5.1}}, {"type": "Feature", "geometry": {"type": "Point", "coordinates": [11.938883087922925, 57.70969426710365]}, "properties": {"id": 448, "height": 4.1}}, {"type": "Feature", "geometry": {"type": "Point", "coordinates": [11.939762897961458, 57.70971555248378]}, "properties": {"id": 449, "height": 4.0}}, {"type": "Feature", "geometry": {"type": "Point", "coordinates": [11.939252148827155, 57.70969870261095]}, "properties": {"id": 450, "height": 3.9}}, {"type": "Feature", "geometry": {"type": "Point", "coordinates": [11.939763276651636, 57.70971106765762]}, "properties": {"id": 451, "height": 4.0}}, {"type": "Feature", "geometry": {"type": "Point", "coordinates": [11.939235769300048, 57.70969381234076]}, "properties": {"id": 452, "height": 3.9}}, {"type": "Feature", "geometry": {"type": "Point", "coordinates": [11.939244148440084, 57.70969401506411]}, "properties": {"id": 453, "height": 3.9}}, {"type": "Feature", "geometry": {"type": "Point", "coordinates": [11.939252527580228, 57.70969421778694]}, "properties": {"id": 454, "height": 3.9}}, {"type": "Feature", "geometry": {"type": "Point", "coordinates": [11.939236148055073, 57.70968932751679]}, "properties": {"id": 455, "height": 3.9}}, {"type": "Feature", "geometry": {"type": "Point", "coordinates": [11.939244527194075, 57.70968953024015]}, "properties": {"id": 456, "height": 3.9}}, {"type": "Feature", "geometry": {"type": "Point", "coordinates": [11.93925290633319, 57.70968973296293]}, "properties": {"id": 457, "height": 3.9}}, {"type": "Feature", "geometry": {"type": "Point", "coordinates": [11.939236526809987, 57.709684842692845]}, "properties": {"id": 458, "height": 3.9}}, {"type": "Feature", "geometry": {"type": "Point", "coordinates": [11.939244905947957, 57.70968504541616]}, "properties": {"id": 459, "height": 3.9}}, {"type": "Feature", "geometry": {"type": "Point", "coordinates": [11.939253285086037, 57.709685248138896]}, "properties": {"id": 460, "height": 3.9}}, {"type": "Feature", "geometry": {"type": "Point", "coordinates": [11.939236905564789, 57.70968035786888]}, "properties": {"id": 461, "height": 3.9}}, {"type": "Feature", "geometry": {"type": "Point", "coordinates": [11.939245284701725, 57.709680560592155]}, "properties": {"id": 462, "height": 3.9}}, {"type": "Feature", "geometry": {"type": "Point", "coordinates": [11.939253663838775, 57.70968076331486]}, "properties": {"id": 463, "height": 3.9}}, {"type": "Feature", "geometry": {"type": "Point", "coordinates": [11.939237284319479, 57.709675873044915]}, "properties": {"id": 464, "height": 3.9}}, {"type": "Feature", "geometry": {"type": "Point", "coordinates": [11.939245663455383, 57.70967607576816]}, "properties": {"id": 465, "height": 3.9}}, {"type": "Feature", "geometry": {"type": "Point", "coordinates": [11.939254042591397, 57.709676278490846]}, "properties": {"id": 466, "height": 3.9}}, {"type": "Feature", "geometry": {"type": "Point", "coordinates": [11.939605966405518, 57.709684792343225]}, "properties": {"id": 467, "height": 4.0}}, {"type": "Feature", "geometry": {"type": "Point", "coordinates": [11.939237663074056, 57.709671388220954]}, "properties": {"id": 468, "height": 3.9}}, {"type": "Feature", "geometry": {"type": "Point", "coordinates": [11.939246042208925, 57.709671590944154]}, "properties": {"id": 469, "height": 3.9}}, {"type": "Feature", "geometry": {"type": "Point", "coordinates": [11.93925442134391, 57.70967179366678]}, "properties": {"id": 470, "height": 3.9}}, {"type": "Feature", "geometry": {"type": "Point", "coordinates": [11.93923804182852, 57.70966690339699]}, "properties": {"id": 471, "height": 3.9}}, {"type": "Feature", "geometry": {"type": "Point", "coordinates": [11.939238420582873, 57.70966241857299]}, "properties": {"id": 472, "height": 3.9}}, {"type": "Feature", "geometry": {"type": "Point", "coordinates": [11.946553824115883, 57.709834700142174]}, "properties": {"id": 473, "height": 5.1}}, {"type": "Feature", "geometry": {"type": "Point", "coordinates": [11.94656220334565, 57.70983490238162]}, "properties": {"id": 474, "height": 5.1}}, {"type": "Feature", "geometry": {"type": "Point", "coordinates": [11.946570582575525, 57.709835104620524]}, "properties": {"id": 475, "height": 5.1}}, {"type": "Feature", "geometry": {"type": "Point", "coordinates": [11.946545822739624, 57.70983001304777]}, "properties": {"id": 476, "height": 5.1}}, {"type": "Feature", "geometry": {"type": "Point", "coordinates": [11.946554201968246, 57.709830215287724]}, "properties": {"id": 477, "height": 5.1}}, {"type": "Feature", "geometry": {"type": "Point", "coordinates": [11.94654620059291, 57.709825528193306]}, "properties": {"id": 478, "height": 5.1}}, {"type": "Feature", "geometry": {"type": "Point", "coordinates": [11.939543856600107, 57.70962486800407]}, "properties": {"id": 479, "height": 4.0}}, {"type": "Feature", "geometry": {"type": "Point", "coordinates": [11.939552235726627, 57.70962507070691]}, "properties": {"id": 480, "height": 4.0}}, {"type": "Feature", "geometry": {"type": "Point", "coordinates": [11.939544235316037, 57.70962038317879]}, "properties": {"id": 481, "height": 4.0}}, {"type": "Feature", "geometry": {"type": "Point", "coordinates": [11.939251344746744, 57.709608803407576]}, "properties": {"id": 482, "height": 4.0}}, {"type": "Feature", "geometry": {"type": "Point", "coordinates": [11.939898809387948, 57.709597502432075]}, "properties": {"id": 483, "height": 4.2}}, {"type": "Feature", "geometry": {"type": "Point", "coordinates": [11.939448230550097, 57.70956413280312]}, "properties": {"id": 484, "height": 4.0}}, {"type": "Feature", "geometry": {"type": "Point", "coordinates": [11.939133612043204, 57.70951158121315]}, "properties": {"id": 485, "height": 4.0}}, {"type": "Feature", "geometry": {"type": "Point", "coordinates": [11.93970566307185, 57.709498456616785]}, "properties": {"id": 486, "height": 4.8}}, {"type": "Feature", "geometry": {"type": "Point", "coordinates": [11.939030365455055, 57.7094416733277]}, "properties": {"id": 487, "height": 4.0}}, {"type": "Feature", "geometry": {"type": "Point", "coordinates": [11.939038744535246, 57.709441876064105]}, "properties": {"id": 488, "height": 4.0}}, {"type": "Feature", "geometry": {"type": "Point", "coordinates": [11.931265284905523, 57.70922658964153]}, "properties": {"id": 489, "height": 8.0}}, {"type": "Feature", "geometry": {"type": "Point", "coordinates": [11.939325905770364, 57.709421859825454]}, "properties": {"id": 490, "height": 4.1}}, {"type": "Feature", "geometry": {"type": "Point", "coordinates": [11.939513275245007, 57.709390440864894]}, "properties": {"id": 491, "height": 4.1}}, {"type": "Feature", "geometry": {"type": "Point", "coordinates": [11.93167317082479, 57.709169073115945]}, "properties": {"id": 492, "height": 9.8}}, {"type": "Feature", "geometry": {"type": "Point", "coordinates": [11.93918341504797, 57.70931954470135]}, "properties": {"id": 493, "height": 4.1}}, {"type": "Feature", "geometry": {"type": "Point", "coordinates": [11.939191794101149, 57.70931974742737]}, "properties": {"id": 494, "height": 4.1}}, {"type": "Feature", "geometry": {"type": "Point", "coordinates": [11.939200173154438, 57.70931995015284]}, "properties": {"id": 495, "height": 4.1}}, {"type": "Feature", "geometry": {"type": "Point", "coordinates": [11.939175414751965, 57.709314857150815]}, "properties": {"id": 496, "height": 4.1}}, {"type": "Feature", "geometry": {"type": "Point", "coordinates": [11.939192172856144, 57.709315262603326]}, "properties": {"id": 497, "height": 4.1}}, {"type": "Feature", "geometry": {"type": "Point", "coordinates": [11.939200551908401, 57.709315465328764]}, "properties": {"id": 498, "height": 4.1}}, {"type": "Feature", "geometry": {"type": "Point", "coordinates": [11.939368890443435, 57.70931055007139]}, "properties": {"id": 499, "height": 4.9}}, {"type": "Feature", "geometry": {"type": "Point", "coordinates": [11.9393692691764, 57.70930606524663]}, "properties": {"id": 500, "height": 4.9}}, {"type": "Feature", "geometry": {"type": "Point", "coordinates": [11.939369647909254, 57.70930158042185]}, "properties": {"id": 501, "height": 4.9}}, {"type": "Feature", "geometry": {"type": "Point", "coordinates": [11.939188717622134, 57.709256757164944]}, "properties": {"id": 502, "height": 4.1}}, {"type": "Feature", "geometry": {"type": "Point", "coordinates": [11.939218778497484, 57.70919906262529]}, "properties": {"id": 503, "height": 4.0}}, {"type": "Feature", "geometry": {"type": "Point", "coordinates": [11.939227157523112, 57.70919926534869]}, "properties": {"id": 504, "height": 4.0}}, {"type": "Feature", "geometry": {"type": "Point", "coordinates": [11.939227536271975, 57.709194780524435]}, "properties": {"id": 505, "height": 4.0}}, {"type": "Feature", "geometry": {"type": "Point", "coordinates": [11.931533335267474, 57.70893648738516]}, "properties": {"id": 506, "height": 7.3}}, {"type": "Feature", "geometry": {"type": "Point", "coordinates": [11.93057156909496, 57.70849521358973]}, "properties": {"id": 507, "height": 7.6}}, {"type": "Feature", "geometry": {"type": "Point", "coordinates": [11.930580684469952, 57.70838757866511]}, "properties": {"id": 508, "height": 7.5}}, {"type": "Feature", "geometry": {"type": "Point", "coordinates": [11.9320340097142, 57.708377892199294]}, "properties": {"id": 509, "height": 15.6}}, {"type": "Feature", "geometry": {"type": "Point", "coordinates": [11.931514069100581, 57.708073171688376]}, "properties": {"id": 510, "height": 19.0}}, {"type": "Feature", "geometry": {"type": "Point", "coordinates": [11.932905694740807, 57.70809793080759]}, "properties": {"id": 511, "height": 13.8}}, {"type": "Feature", "geometry": {"type": "Point", "coordinates": [11.932797909949414, 57.70808183555962]}, "properties": {"id": 512, "height": 12.6}}, {"type": "Feature", "geometry": {"type": "Point", "coordinates": [11.947203357523286, 57.70840331605544]}, "properties": {"id": 513, "height": 10.7}}, {"type": "Feature", "geometry": {"type": "Point", "coordinates": [11.93236601260993, 57.7080264232511]}, "properties": {"id": 514, "height": 10.0}}, {"type": "Feature", "geometry": {"type": "Point", "coordinates": [11.933091894182468, 57.70798110702179]}, "properties": {"id": 515, "height": 8.3}}, {"type": "Feature", "geometry": {"type": "Point", "coordinates": [11.932309611430686, 57.7078992235456]}, "properties": {"id": 516, "height": 21.6}}, {"type": "Feature", "geometry": {"type": "Point", "coordinates": [11.932552972499153, 57.70790063067725]}, "properties": {"id": 517, "height": 18.2}}, {"type": "Feature", "geometry": {"type": "Point", "coordinates": [11.931710903297947, 57.707830775769935]}, "properties": {"id": 518, "height": 13.0}}, {"type": "Feature", "geometry": {"type": "Point", "coordinates": [11.93158479219912, 57.70763447488411]}, "properties": {"id": 519, "height": 10.3}}, {"type": "Feature", "geometry": {"type": "Point", "coordinates": [11.945560838785283, 57.707968199330324]}, "properties": {"id": 520, "height": 4.3}}, {"type": "Feature", "geometry": {"type": "Point", "coordinates": [11.93131019683759, 57.70760534418438]}, "properties": {"id": 521, "height": 9.7}}, {"type": "Feature", "geometry": {"type": "Point", "coordinates": [11.945157838116723, 57.70786858890073]}, "properties": {"id": 522, "height": 6.3}}, {"type": "Feature", "geometry": {"type": "Point", "coordinates": [11.930997482169388, 57.707431480003414]}, "properties": {"id": 523, "height": 12.5}}, {"type": "Feature", "geometry": {"type": "Point", "coordinates": [11.945266698920515, 57.707772350083204]}, "properties": {"id": 524, "height": 4.1}}, {"type": "Feature", "geometry": {"type": "Point", "coordinates": [11.93391512231264, 57.70747975824046]}, "properties": {"id": 525, "height": 11.5}}, {"type": "Feature", "geometry": {"type": "Point", "coordinates": [11.944508392565027, 57.70770460331545]}, "properties": {"id": 526, "height": 11.6}}, {"type": "Feature", "geometry": {"type": "Point", "coordinates": [11.933645458447549, 57.70739233016331]}, "properties": {"id": 527, "height": 11.9}}, {"type": "Feature", "geometry": {"type": "Point", "coordinates": [11.93147617333909, 57.70733074208062]}, "properties": {"id": 528, "height": 12.4}}, {"type": "Feature", "geometry": {"type": "Point", "coordinates": [11.933973360670722, 57.70738679578227]}, "properties": {"id": 529, "height": 12.7}}, {"type": "Feature", "geometry": {"type": "Point", "coordinates": [11.932901284656166, 57.70735631389828]}, "properties": {"id": 530, "height": 16.6}}, {"type": "Feature", "geometry": {"type": "Point", "coordinates": [11.93270703097577, 57.70727071206657]}, "properties": {"id": 531, "height": 11.6}}, {"type": "Feature", "geometry": {"type": "Point", "coordinates": [11.933184986791385, 57.70727780593394]}, "properties": {"id": 532, "height": 13.9}}, {"type": "Feature", "geometry": {"type": "Point", "coordinates": [11.934167552188843, 57.70727465820365]}, "properties": {"id": 533, "height": 8.6}}, {"type": "Feature", "geometry": {"type": "Point", "coordinates": [11.932928667766308, 57.70723114579495]}, "properties": {"id": 534, "height": 13.6}}, {"type": "Feature", "geometry": {"type": "Point", "coordinates": [11.932159362610543, 57.70719451579539]}, "properties": {"id": 535, "height": 15.0}}, {"type": "Feature", "geometry": {"type": "Point", "coordinates": [11.930928102996889, 57.70716015662194]}, "properties": {"id": 536, "height": 13.6}}, {"type": "Feature", "geometry": {"type": "Point", "coordinates": [11.931771267505953, 57.707117693507044]}, "properties": {"id": 537, "height": 7.5}}, {"type": "Feature", "geometry": {"type": "Point", "coordinates": [11.93433698627645, 57.707157426384185]}, "properties": {"id": 538, "height": 14.8}}, {"type": "Feature", "geometry": {"type": "Point", "coordinates": [11.931459314067856, 57.706934860886804]}, "properties": {"id": 539, "height": 7.8}}, {"type": "Feature", "geometry": {"type": "Point", "coordinates": [11.934031501027174, 57.70699722704517]}, "properties": {"id": 540, "height": 12.5}}, {"type": "Feature", "geometry": {"type": "Point", "coordinates": [11.931212897044317, 57.70687046137405]}, "properties": {"id": 541, "height": 3.8}}, {"type": "Feature", "geometry": {"type": "Point", "coordinates": [11.934308336797569, 57.70690057422733]}, "properties": {"id": 542, "height": 10.0}}, {"type": "Feature", "geometry": {"type": "Point", "coordinates": [11.931251346854408, 57.70681297206041]}, "properties": {"id": 543, "height": 4.4}}, {"type": "Feature", "geometry": {"type": "Point", "coordinates": [11.934462942070901, 57.70685938086183]}, "properties": {"id": 544, "height": 11.0}}, {"type": "Feature", "geometry": {"type": "Point", "coordinates": [11.934287753338559, 57.70684614743168]}, "properties": {"id": 545, "height": 9.2}}, {"type": "Feature", "geometry": {"type": "Point", "coordinates": [11.932564453117482, 57.706772914867884]}, "properties": {"id": 546, "height": 8.4}}, {"type": "Feature", "geometry": {"type": "Point", "coordinates": [11.934107221080252, 57.706796832267585]}, "properties": {"id": 547, "height": 19.5}}, {"type": "Feature", "geometry": {"type": "Point", "coordinates": [11.933856626963582, 57.70678177071296]}, "properties": {"id": 548, "height": 12.5}}, {"type": "Feature", "geometry": {"type": "Point", "coordinates": [11.933766329352796, 57.70665824411084]}, "properties": {"id": 549, "height": 16.8}}, {"type": "Feature", "geometry": {"type": "Point", "coordinates": [11.93427017129377, 57.70665697342972]}, "properties": {"id": 550, "height": 17.9}}, {"type": "Feature", "geometry": {"type": "Point", "coordinates": [11.934098397725618, 57.706603376501064]}, "properties": {"id": 551, "height": 14.3}}, {"type": "Feature", "geometry": {"type": "Point", "coordinates": [11.933589592834435, 57.70656408019247]}, "properties": {"id": 552, "height": 12.6}}, {"type": "Feature", "geometry": {"type": "Point", "coordinates": [11.932479824756227, 57.70648324670205]}, "properties": {"id": 553, "height": 14.8}}, {"type": "Feature", "geometry": {"type": "Point", "coordinates": [11.932609295224701, 57.70644144610915]}, "properties": {"id": 554, "height": 12.0}}, {"type": "Feature", "geometry": {"type": "Point", "coordinates": [11.934436845774169, 57.70627452876537]}, "properties": {"id": 555, "height": 7.7}}, {"type": "Feature", "geometry": {"type": "Point", "coordinates": [11.936538052643224, 57.70575019904577]}, "properties": {"id": 556, "height": 6.8}}, {"type": "Feature", "geometry": {"type": "Point", "coordinates": [11.937985546588653, 57.7057088465621]}, "properties": {"id": 557, "height": 10.0}}, {"type": "Feature", "geometry": {"type": "Point", "coordinates": [11.930980973921107, 57.705345861617204]}, "properties": {"id": 558, "height": 6.8}}, {"type": "Feature", "geometry": {"type": "Point", "coordinates": [11.931573107726711, 57.705193947844144]}, "properties": {"id": 559, "height": 12.6}}, {"type": "Feature", "geometry": {"type": "Point", "coordinates": [11.933904862847884, 57.705219028175144]}, "properties": {"id": 560, "height": 11.0}}, {"type": "Feature", "geometry": {"type": "Point", "coordinates": [11.931018234229343, 57.70510408933452]}, "properties": {"id": 561, "height": 8.1}}]}