{"type":"FeatureCollection","metadata":{"title":"Synth Pop Heatmap","bins":[0,0.5,1,2,5,10],"colors":["#fed976","#feb24c","#fd8d3c","#fc4e2a","#e31a1c","#b10026"],"measure":"Average extra minutes per routed synthetic healthcare trip in each occupied 200 m cell","localTrips":1018,"localRoutedTrips":1018,"localResidents":1006,"qualifyingTrips":175,"cityTrips":4681,"cityRoutedTrips":4642,"cityQualifyingTrips":657,"meanExtraMinutes":0.748,"destination":{"name":"Sahlgrenska","coordinates":[11.9605,57.6832]},"provenance":{"repository":"https://github.com/SaraAboebeid/slow_walkers","commit":"530a93530baf450041075a9c0dd28b6f4787d890","syntheticPopulation":"https://zenodo.org/records/10801936","speedsKmh":{"medium":4.8,"slow":4.235},"sha256":{"README.md":"dd37606ceddc233ce1f700759373fc0189d78cebb85e0d7f959cfabb60e7c533","config.py":"3cae23e89250f197de18f0a46a188d53b3db7de57a682394308d502ff8985b24","data/regso_goteborg.gpkg":"57c4ed4205afc3f7177a0ec57c515a314443fc763984babe28ac6f66c5fdd608","grids.py":"9e77cc5846c01c151db2040834db67f812de5bc9fd42622e5f7f54aa3a7c9e15","output/compute_delays.log":"0e0f88852f9830c77b47336ebe36376f663efa18e4ab01f9ac70b7c62d4f6592","output/delays_by_departure.npz":"86a495c04be18c74ca4bc5a2ab022cb472543994408ce38f9c7ee64572f7c88b","output/district_delays.gpkg":"518ae85d6ef53c0ecd8b53c06531de0c817a53f5d922a967ff09ef2bc9838782","output/point_delays.gpkg":"64152b2f7a3e315895704014c2dc99b8bd12a6b70349627e9fa02567b0b012d7","output/synthpop_delays.csv":"d56af3294b4d36e73402e6266b2f10befd1cd65e2e01a4695b3c4c1446fb96c0","output/synthpop_legs.gpkg":"048ec56c6431dfd6057cfc984eeb4b654948a1d3c69460f5bc015ea28e178ff0","output/synthpop_routes.gpkg":"96a21820abaa8bbdecfbcaa99d36a8c85eb0d4b740e189db436cdedaf41b44e6"}}},"features":[{"type":"Feature","geometry":{"type":"Polygon","coordinates":[[[11.936544483463452,57.69067299073749],[11.936695998338081,57.68887905986045],[11.934395228378342,57.68882330875993],[11.934392007778314,57.690620833270856],[11.936544483463452,57.69067299073749]]]},"properties":{"delay":0.141,"trips":1,"residents":1}},{"type":"Feature","geometry":{"type":"Polygon","coordinates":[[[11.936392950613614,57.692466920848766],[11.936544483463452,57.69067299073749],[11.934392007778314,57.690620833270856],[11.934388783850748,57.69241835733778],[11.936392950613614,57.692466920848766]]]},"properties":{"delay":0.141,"trips":1,"residents":1}},{"type":"Feature","geometry":{"type":"Polygon","coordinates":[[[11.936241399785612,57.694260850194226],[11.936392950613614,57.692466920848766],[11.934388783850748,57.69241835733778],[11.934385556595284,57.694215880960634],[11.936241399785612,57.694260850194226]]]},"properties":{"delay":0.13,"trips":3,"residents":3}},{"type":"Feature","geometry":{"type":"Polygon","coordinates":[[[11.935938244183284,57.697848706587564],[11.936089830976488,57.69605477877382],[11.934382326011578,57.69601340413944],[11.934379092099269,57.69781092687422],[11.935938244183284,57.697848706587564]]]},"properties":{"delay":0.248,"trips":10,"residents":10}},{"type":"Feature","geometry":{"type":"Polygon","coordinates":[[[11.935786639403036,57.699642633635406],[11.935938244183284,57.697848706587564],[11.934379092099269,57.69781092687422],[11.934375854858,57.699608449165005],[11.935786639403036,57.699642633635406]]]},"properties":{"delay":0.13,"trips":3,"residents":3}},{"type":"Feature","geometry":{"type":"Polygon","coordinates":[[[11.936695998338081,57.68887905986045],[11.936544483463452,57.69067299073749],[11.939894383771135,57.69075409035874],[11.940045733594594,57.688960153891784],[11.936695998338081,57.68887905986045]]]},"properties":{"delay":6.058,"trips":1,"residents":1}},{"type":"Feature","geometry":{"type":"Polygon","coordinates":[[[11.936544483463452,57.69067299073749],[11.936392950613614,57.692466920848766],[11.93974301599195,57.69254802606044],[11.939894383771135,57.69075409035874],[11.936544483463452,57.69067299073749]]]},"properties":{"delay":0.325,"trips":1,"residents":1}},{"type":"Feature","geometry":{"type":"Polygon","coordinates":[[[11.936392950613614,57.692466920848766],[11.936241399785612,57.694260850194226],[11.939591630254096,57.6943419609969],[11.93974301599195,57.69254802606044],[11.936392950613614,57.692466920848766]]]},"properties":{"delay":1.016,"trips":12,"residents":12}},{"type":"Feature","geometry":{"type":"Polygon","coordinates":[[[11.936241399785612,57.694260850194226],[11.936089830976488,57.69605477877382],[11.939440226554611,57.69613589516806],[11.939591630254096,57.6943419609969],[11.936241399785612,57.694260850194226]]]},"properties":{"delay":0.134,"trips":20,"residents":19}},{"type":"Feature","geometry":{"type":"Polygon","coordinates":[[[11.936089830976488,57.69605477877382],[11.935938244183284,57.697848706587564],[11.939288804890541,57.69792982857391],[11.939440226554611,57.69613589516806],[11.936089830976488,57.69605477877382]]]},"properties":{"delay":0.134,"trips":10,"residents":10}},{"type":"Feature","geometry":{"type":"Polygon","coordinates":[[[11.93762198007708,57.7176630455198],[11.937773599546873,57.71586912053418],[11.9344213864752,57.71578794259646],[11.934344922604474,57.716691683040395],[11.934343299274772,57.717583647654614],[11.93762198007708,57.7176630455198]]]},"properties":{"delay":0.147,"trips":5,"residents":5}},{"type":"Feature","geometry":{"type":"Polygon","coordinates":[[[11.937470342607181,57.71945696973976],[11.93762198007708,57.7176630455198],[11.934343299274772,57.717583647654614],[11.934340025391588,57.71938116506196],[11.937470342607181,57.71945696973976]]]},"properties":{"delay":0.141,"trips":2,"residents":2}},{"type":"Feature","geometry":{"type":"Polygon","coordinates":[[[11.936711885152281,57.72842657935412],[11.934323605970354,57.72836874544069],[11.934320314774519,57.73016479189264],[11.93656475528794,57.73016593618789],[11.936711885152281,57.72842657935412]]]},"properties":{"delay":0.125,"trips":1,"residents":1}},{"type":"Feature","geometry":{"type":"Polygon","coordinates":[[[11.93974301599195,57.69254802606044],[11.939591630254096,57.6943419609969],[11.942941878684207,57.69442298321157],[11.943093099328962,57.69262904269019],[11.93974301599195,57.69254802606044]]]},"properties":{"delay":0.976,"trips":12,"residents":12}},{"type":"Feature","geometry":{"type":"Polygon","coordinates":[[[11.939591630254096,57.6943419609969],[11.939440226554611,57.69613589516806],[11.94279064009732,57.69621692296819],[11.942941878684207,57.69442298321157],[11.939591630254096,57.6943419609969]]]},"properties":{"delay":1.234,"trips":14,"residents":14}},{"type":"Feature","geometry":{"type":"Polygon","coordinates":[[[11.939440226554611,57.69613589516806],[11.939288804890541,57.69792982857391],[11.942639383565345,57.69801086196007],[11.94279064009732,57.69621692296819],[11.939440226554611,57.69613589516806]]]},"properties":{"delay":1.592,"trips":2,"residents":2}},{"type":"Feature","geometry":{"type":"Polygon","coordinates":[[[11.939288804890541,57.69792982857391],[11.939137365258931,57.699723761214415],[11.942488109085327,57.69980480018714],[11.942639383565345,57.69801086196007],[11.939288804890541,57.69792982857391]]]},"properties":{"delay":0.396,"trips":11,"residents":11}},{"type":"Feature","geometry":{"type":"Polygon","coordinates":[[[11.937773599546873,57.71586912053418],[11.93762198007708,57.7176630455198],[11.940974376492676,57.717744140388575],[11.941125830615684,57.71595020981088],[11.937773599546873,57.71586912053418]]]},"properties":{"delay":1.492,"trips":1,"residents":1}},{"type":"Feature","geometry":{"type":"Polygon","coordinates":[[[11.937470342607181,57.71945696973976],[11.937318687134212,57.72125089319408],[11.940671414301974,57.721331999248676],[11.940822904389092,57.71953807020117],[11.937470342607181,57.71945696973976]]]},"properties":{"delay":0.141,"trips":2,"residents":2}},{"type":"Feature","geometry":{"type":"Polygon","coordinates":[[[11.937318687134212,57.72125089319408],[11.937167013655202,57.723044815882695],[11.940519906228362,57.72312592753103],[11.940671414301974,57.721331999248676],[11.937318687134212,57.72125089319408]]]},"properties":{"delay":0.145,"trips":4,"residents":4}},{"type":"Feature","geometry":{"type":"Polygon","coordinates":[[[11.937167013655202,57.723044815882695],[11.937015322167186,57.72483873780559],[11.94036838016529,57.72491985504821],[11.940519906228362,57.72312592753103],[11.937167013655202,57.723044815882695]]]},"properties":{"delay":1.074,"trips":1,"residents":1}},{"type":"Feature","geometry":{"type":"Polygon","coordinates":[[[11.937015322167186,57.72483873780559],[11.936863612667203,57.726632658962735],[11.940216836109796,57.726713781800214],[11.94036838016529,57.72491985504821],[11.937015322167186,57.72483873780559]]]},"properties":{"delay":0.125,"trips":1,"residents":1}},{"type":"Feature","geometry":{"type":"Polygon","coordinates":[[[11.943244302034534,57.690835101404105],[11.943093099328962,57.69262904269019],[11.946443200605154,57.692709970737006],[11.946594238234164,57.6909160238726],[11.943244302034534,57.690835101404105]]]},"properties":{"delay":0.125,"trips":1,"residents":1}},{"type":"Feature","geometry":{"type":"Polygon","coordinates":[[[11.943093099328962,57.69262904269019],[11.942941878684207,57.69442298321157],[11.946292145056454,57.69450391683722],[11.946443200605154,57.692709970737006],[11.943093099328962,57.69262904269019]]]},"properties":{"delay":1.85,"trips":6,"residents":6}},{"type":"Feature","geometry":{"type":"Polygon","coordinates":[[[11.942941878684207,57.69442298321157],[11.94279064009732,57.69621692296819],[11.946141071585114,57.69629786217324],[11.946292145056454,57.69450391683722],[11.942941878684207,57.69442298321157]]]},"properties":{"delay":0.52,"trips":11,"residents":11}},{"type":"Feature","geometry":{"type":"Polygon","coordinates":[[[11.94279064009732,57.69621692296819],[11.942639383565345,57.69801086196007],[11.945989980188184,57.69809180674504],[11.946141071585114,57.69629786217324],[11.94279064009732,57.69621692296819]]]},"properties":{"delay":0.131,"trips":5,"residents":5}},{"type":"Feature","geometry":{"type":"Polygon","coordinates":[[[11.942639383565345,57.69801086196007],[11.942488109085327,57.69980480018714],[11.945838870862717,57.6998857505526],[11.945989980188184,57.69809180674504],[11.942639383565345,57.69801086196007]]]},"properties":{"delay":1.845,"trips":4,"residents":4}},{"type":"Feature","geometry":{"type":"Polygon","coordinates":[[[11.941125830615684,57.71595020981088],[11.940974376492676,57.717744140388575],[11.94432679088884,57.71782514658922],[11.944478079662112,57.71603121042553],[11.941125830615684,57.71595020981088]]]},"properties":{"delay":0.157,"trips":1,"residents":1}},{"type":"Feature","geometry":{"type":"Polygon","coordinates":[[[11.940974376492676,57.717744140388575],[11.940822904389092,57.71953807020117],[11.944175484154533,57.719619081988355],[11.94432679088884,57.71782514658922],[11.940974376492676,57.717744140388575]]]},"properties":{"delay":0.149,"trips":2,"residents":2}},{"type":"Feature","geometry":{"type":"Polygon","coordinates":[[[11.940822904389092,57.71953807020117],[11.940671414301974,57.721331999248676],[11.944024159456234,57.721413016622954],[11.944175484154533,57.719619081988355],[11.940822904389092,57.71953807020117]]]},"properties":{"delay":0.13,"trips":6,"residents":6}},{"type":"Feature","geometry":{"type":"Polygon","coordinates":[[[11.940671414301974,57.721331999248676],[11.940519906228362,57.72312592753103],[11.94387281679098,57.72320695049296],[11.944024159456234,57.721413016622954],[11.940671414301974,57.721331999248676]]]},"properties":{"delay":1.697,"trips":6,"residents":6}},{"type":"Feature","geometry":{"type":"Polygon","coordinates":[[[11.940519906228362,57.72312592753103],[11.94036838016529,57.72491985504821],[11.943721456155815,57.725000883598355],[11.94387281679098,57.72320695049296],[11.940519906228362,57.72312592753103]]]},"properties":{"delay":1.325,"trips":2,"residents":2}},{"type":"Feature","geometry":{"type":"Polygon","coordinates":[[[11.94036838016529,57.72491985504821],[11.940216836109796,57.726713781800214],[11.943570077547777,57.726794815939094],[11.943721456155815,57.725000883598355],[11.94036838016529,57.72491985504821]]]},"properties":{"delay":0.791,"trips":5,"residents":5}},{"type":"Feature","geometry":{"type":"Polygon","coordinates":[[[11.940216836109796,57.726713781800214],[11.940065274058918,57.72850770778698],[11.943418680963907,57.72858874751517],[11.943570077547777,57.726794815939094],[11.940216836109796,57.726713781800214]]]},"properties":{"delay":0.157,"trips":1,"residents":1}},{"type":"Feature","geometry":{"type":"Polygon","coordinates":[[[11.946594238234164,57.6909160238726],[11.946443200605154,57.692709970737006],[11.949793319801037,57.69279081019988],[11.949944192350538,57.6909968577633],[11.946594238234164,57.6909160238726]]]},"properties":{"delay":0.987,"trips":12,"residents":12}},{"type":"Feature","geometry":{"type":"Polygon","coordinates":[[[11.946443200605154,57.692709970737006],[11.946292145056454,57.69450391683722],[11.94964242935134,57.69458476187286],[11.949793319801037,57.69279081019988],[11.946443200605154,57.692709970737006]]]},"properties":{"delay":0.136,"trips":10,"residents":10}},{"type":"Feature","geometry":{"type":"Polygon","coordinates":[[[11.946292145056454,57.69450391683722],[11.946141071585114,57.69629786217324],[11.949491520998496,57.69637871278219],[11.94964242935134,57.69458476187286],[11.946292145056454,57.69450391683722]]]},"properties":{"delay":2.419,"trips":3,"residents":3}},{"type":"Feature","geometry":{"type":"Polygon","coordinates":[[[11.946141071585114,57.69629786217324],[11.945989980188184,57.69809180674504],[11.949340594739565,57.69817266292786],[11.949491520998496,57.69637871278219],[11.946141071585114,57.69629786217324]]]},"properties":{"delay":0.133,"trips":10,"residents":10}},{"type":"Feature","geometry":{"type":"Polygon","coordinates":[[[11.945989980188184,57.69809180674504],[11.945838870862717,57.6998857505526],[11.949189650571599,57.69996661230983],[11.949340594739565,57.69817266292786],[11.945989980188184,57.69809180674504]]]},"properties":{"delay":2.421,"trips":9,"residents":9}},{"type":"Feature","geometry":{"type":"Polygon","coordinates":[[[11.944629350477303,57.71423727349732],[11.944478079662112,57.71603121042553],[11.947830346666615,57.716112122377126],[11.947981452148644,57.714318179869586],[11.944629350477303,57.71423727349732]]]},"properties":{"delay":1.731,"trips":5,"residents":5}},{"type":"Feature","geometry":{"type":"Polygon","coordinates":[[[11.944478079662112,57.71603121042553],[11.94432679088884,57.71782514658922],[11.947679223246043,57.71790606412072],[11.947830346666615,57.716112122377126],[11.944478079662112,57.71603121042553]]]},"properties":{"delay":0.698,"trips":7,"residents":7}},{"type":"Feature","geometry":{"type":"Polygon","coordinates":[[[11.94432679088884,57.71782514658922],[11.944175484154533,57.719619081988355],[11.94752808188397,57.71970000510036],[11.947679223246043,57.71790606412072],[11.94432679088884,57.71782514658922]]]},"properties":{"delay":0.841,"trips":6,"residents":6}},{"type":"Feature","geometry":{"type":"Polygon","coordinates":[[[11.944175484154533,57.719619081988355],[11.944024159456234,57.721413016622954],[11.947376922577444,57.721493945315935],[11.94752808188397,57.71970000510036],[11.944175484154533,57.719619081988355]]]},"properties":{"delay":0.125,"trips":3,"residents":3}},{"type":"Feature","geometry":{"type":"Polygon","coordinates":[[[11.944024159456234,57.721413016622954],[11.94387281679098,57.72320695049296],[11.947225745323511,57.723287884767494],[11.947376922577444,57.721493945315935],[11.944024159456234,57.721413016622954]]]},"properties":{"delay":0.734,"trips":7,"residents":7}},{"type":"Feature","geometry":{"type":"Polygon","coordinates":[[[11.94387281679098,57.72320695049296],[11.943721456155815,57.725000883598355],[11.947074550119211,57.72508182345499],[11.947225745323511,57.723287884767494],[11.94387281679098,57.72320695049296]]]},"properties":{"delay":0.374,"trips":4,"residents":4}},{"type":"Feature","geometry":{"type":"Polygon","coordinates":[[[11.943721456155815,57.725000883598355],[11.943570077547777,57.726794815939094],[11.94692333696159,57.72687576137841],[11.947074550119211,57.72508182345499],[11.943721456155815,57.725000883598355]]]},"properties":{"delay":0.149,"trips":2,"residents":2}},{"type":"Feature","geometry":{"type":"Polygon","coordinates":[[[11.943570077547777,57.726794815939094],[11.943418680963907,57.72858874751517],[11.946772105847687,57.72866969853771],[11.94692333696159,57.72687576137841],[11.943570077547777,57.726794815939094]]]},"properties":{"delay":0.125,"trips":1,"residents":1}},{"type":"Feature","geometry":{"type":"Polygon","coordinates":[[[11.946772105847687,57.72866969853771],[11.943418680963907,57.72858874751517],[11.943285292095831,57.7301691245513],[11.946645565427788,57.73017058492156],[11.946772105847687,57.72866969853771]]]},"properties":{"delay":0.125,"trips":1,"residents":1}},{"type":"Feature","geometry":{"type":"Polygon","coordinates":[[[11.950095047002785,57.68920290456313],[11.949944192350538,57.6909968577633],[11.953294164364165,57.69107760307514],[11.953444853953446,57.68928364430941],[11.950095047002785,57.68920290456313]]]},"properties":{"delay":1.533,"trips":2,"residents":2}},{"type":"Feature","geometry":{"type":"Polygon","coordinates":[[[11.949944192350538,57.6909968577633],[11.949793319801037,57.69279081019988],[11.953143456897118,57.69287156107787],[11.953294164364165,57.69107760307514],[11.949944192350538,57.6909968577633]]]},"properties":{"delay":1.58,"trips":9,"residents":9}},{"type":"Feature","geometry":{"type":"Polygon","coordinates":[[[11.949793319801037,57.69279081019988],[11.94964242935134,57.69458476187286],[11.952992731549367,57.69466551831753],[11.953143456897118,57.69287156107787],[11.949793319801037,57.69279081019988]]]},"properties":{"delay":0.443,"trips":10,"residents":10}},{"type":"Feature","geometry":{"type":"Polygon","coordinates":[[[11.94964242935134,57.69458476187286],[11.949491520998496,57.69637871278219],[11.95284198831797,57.69645947479408],[11.952992731549367,57.69466551831753],[11.94964242935134,57.69458476187286]]]},"properties":{"delay":0.256,"trips":9,"residents":9}},{"type":"Feature","geometry":{"type":"Polygon","coordinates":[[[11.949491520998496,57.69637871278219],[11.949340594739565,57.69817266292786],[11.952691227199983,57.69825343050753],[11.95284198831797,57.69645947479408],[11.949491520998496,57.69637871278219]]]},"properties":{"delay":1.279,"trips":13,"residents":13}},{"type":"Feature","geometry":{"type":"Polygon","coordinates":[[[11.949340594739565,57.69817266292786],[11.949189650571599,57.69996661230983],[11.952540448192462,57.700047385457815],[11.952691227199983,57.69825343050753],[11.949340594739565,57.69817266292786]]]},"properties":{"delay":0.136,"trips":11,"residents":11}},{"type":"Feature","geometry":{"type":"Polygon","coordinates":[[[11.947981452148644,57.714318179869586],[11.947830346666615,57.716112122377126],[11.951182631609663,57.71619294566474],[11.951333571755574,57.71439899758392],[11.947981452148644,57.714318179869586]]]},"properties":{"delay":2.25,"trips":2,"residents":2}},{"type":"Feature","geometry":{"type":"Polygon","coordinates":[[[11.947830346666615,57.716112122377126],[11.947679223246043,57.71790606412072],[11.951031673544742,57.71798689298216],[11.951182631609663,57.71619294566474],[11.947830346666615,57.716112122377126]]]},"properties":{"delay":0.363,"trips":6,"residents":6}},{"type":"Feature","geometry":{"type":"Polygon","coordinates":[[[11.947679223246043,57.71790606412072],[11.94752808188397,57.71970000510036],[11.95088069755786,57.71978083953613],[11.951031673544742,57.71798689298216],[11.947679223246043,57.71790606412072]]]},"properties":{"delay":4.204,"trips":4,"residents":4}},{"type":"Feature","geometry":{"type":"Polygon","coordinates":[[[11.947376922577444,57.721493945315935],[11.947225745323511,57.723287884767494],[11.950578691806406,57.72336873035367],[11.950729703646065,57.721574785326645],[11.947376922577444,57.721493945315935]]]},"properties":{"delay":1.109,"trips":11,"residents":11}},{"type":"Feature","geometry":{"type":"Polygon","coordinates":[[[11.947225745323511,57.723287884767494],[11.947074550119211,57.72508182345499],[11.950427662035931,57.72516267461719],[11.950578691806406,57.72336873035367],[11.947225745323511,57.723287884767494]]]},"properties":{"delay":0.141,"trips":2,"residents":2}},{"type":"Feature","geometry":{"type":"Polygon","coordinates":[[[11.953294164364165,57.69107760307514],[11.953143456897118,57.69287156107787],[11.956493611873903,57.692952223369964],[11.956644154255551,57.69115825980722],[11.953294164364165,57.69107760307514]]]},"properties":{"delay":0.131,"trips":8,"residents":8}},{"type":"Feature","geometry":{"type":"Polygon","coordinates":[[[11.953143456897118,57.69287156107787],[11.952992731549367,57.69466551831753],[11.956343051631045,57.69474618617022],[11.956493611873903,57.692952223369964],[11.953143456897118,57.69287156107787]]]},"properties":{"delay":0.145,"trips":12,"residents":11}},{"type":"Feature","geometry":{"type":"Polygon","coordinates":[[[11.95284198831797,57.69645947479408],[11.952691227199983,57.69825343050753],[11.956041877549936,57.69833410948305],[11.956192473524034,57.696540148207916],[11.95284198831797,57.69645947479408]]]},"properties":{"delay":0.133,"trips":2,"residents":2}},{"type":"Feature","geometry":{"type":"Polygon","coordinates":[[[11.952691227199983,57.69825343050753],[11.952540448192462,57.700047385457815],[11.955891263705805,57.700128069995586],[11.956041877549936,57.69833410948305],[11.952691227199983,57.69825343050753]]]},"properties":{"delay":1.507,"trips":7,"residents":7}},{"type":"Feature","geometry":{"type":"Polygon","coordinates":[[[11.951182631609663,57.71619294566474],[11.951031673544742,57.71798689298216],[11.954384141765402,57.71806763317249],[11.95453493447172,57.716273680287344],[11.951182631609663,57.71619294566474]]]},"properties":{"delay":0.141,"trips":1,"residents":1}},{"type":"Feature","geometry":{"type":"Polygon","coordinates":[[[11.951031673544742,57.71798689298216],[11.95088069755786,57.71978083953613],[11.954233331156662,57.71986158529474],[11.954384141765402,57.71806763317249],[11.951031673544742,57.71798689298216]]]},"properties":{"delay":0.992,"trips":6,"residents":6}},{"type":"Feature","geometry":{"type":"Polygon","coordinates":[[[11.95679467877893,57.689364295481965],[11.956644154255551,57.69115825980722],[11.959994162005213,57.69123882795848],[11.960144521459746,57.68944485807982],[11.95679467877893,57.689364295481965]]]},"properties":{"delay":0.125,"trips":1,"residents":1}},{"type":"Feature","geometry":{"type":"Polygon","coordinates":[[[11.956644154255551,57.69115825980722],[11.956493611873903,57.692952223369964],[11.959843784711898,57.6930327970752],[11.959994162005213,57.69123882795848],[11.956644154255551,57.69115825980722]]]},"properties":{"delay":0.799,"trips":20,"residents":20}},{"type":"Feature","geometry":{"type":"Polygon","coordinates":[[[11.956493611873903,57.692952223369964],[11.956343051631045,57.69474618617022],[11.95969338957687,57.69482676542996],[11.959843784711898,57.6930327970752],[11.956493611873903,57.692952223369964]]]},"properties":{"delay":0.129,"trips":7,"residents":7}},{"type":"Feature","geometry":{"type":"Polygon","coordinates":[[[11.956343051631045,57.69474618617022],[11.956192473524034,57.696540148207916],[11.95954297659719,57.69662073302272],[11.95969338957687,57.69482676542996],[11.956343051631045,57.69474618617022]]]},"properties":{"delay":0.662,"trips":9,"residents":9}},{"type":"Feature","geometry":{"type":"Polygon","coordinates":[[[11.956192473524034,57.696540148207916],[11.956041877549936,57.69833410948305],[11.959392545769918,57.69841469985345],[11.95954297659719,57.69662073302272],[11.956192473524034,57.696540148207916]]]},"properties":{"delay":0.286,"trips":3,"residents":3}},{"type":"Feature","geometry":{"type":"Polygon","coordinates":[[[11.956041877549936,57.69833410948305],[11.955891263705805,57.700128069995586],[11.959242097092122,57.700208665922155],[11.959392545769918,57.69841469985345],[11.956041877549936,57.69833410948305]]]},"properties":{"delay":0.697,"trips":6,"residents":6}},{"type":"Feature","geometry":{"type":"Polygon","coordinates":[[[11.955740631988705,57.70192202974549],[11.95558998239569,57.70371598873278],[11.958941146173197,57.703796595773305],[11.959091630560863,57.70200263122877],[11.955740631988705,57.70192202974549]]]},"properties":{"delay":0.648,"trips":8,"residents":8}},{"type":"Feature","geometry":{"type":"Polygon","coordinates":[[[11.95558998239569,57.70371598873278],[11.955439314923815,57.705509946957385],[11.95879064392619,57.7055905595557],[11.958941146173197,57.703796595773305],[11.95558998239569,57.70371598873278]]]},"properties":{"delay":0.125,"trips":1,"residents":1}},{"type":"Feature","geometry":{"type":"Polygon","coordinates":[[[11.960595492820007,57.68406294387248],[11.96044518686421,57.685856916036784],[11.963794717295775,57.68593737896592],[11.963944858238252,57.68414340125591],[11.960595492820007,57.68406294387248]]]},"properties":{"delay":0.439,"trips":3,"residents":3}},{"type":"Feature","geometry":{"type":"Polygon","coordinates":[[[11.96044518686421,57.685856916036784],[11.960294863078433,57.687650887439254],[11.963644558542805,57.68773135591462],[11.963794717295775,57.68593737896592],[11.96044518686421,57.685856916036784]]]},"properties":{"delay":0.979,"trips":1,"residents":1}},{"type":"Feature","geometry":{"type":"Polygon","coordinates":[[[11.960294863078433,57.687650887439254],[11.960144521459746,57.68944485807982],[11.963494381976407,57.68952533210199],[11.963644558542805,57.68773135591462],[11.960294863078433,57.687650887439254]]]},"properties":{"delay":1.467,"trips":4,"residents":4}},{"type":"Feature","geometry":{"type":"Polygon","coordinates":[[[11.960144521459746,57.68944485807982],[11.959994162005213,57.69123882795848],[11.963344187593652,57.69131930752798],[11.963494381976407,57.68952533210199],[11.960144521459746,57.68944485807982]]]},"properties":{"delay":0.417,"trips":5,"residents":5}},{"type":"Feature","geometry":{"type":"Polygon","coordinates":[[[11.959994162005213,57.69123882795848],[11.959843784711898,57.6930327970752],[11.96319397539161,57.6931132821926],[11.963344187593652,57.69131930752798],[11.959994162005213,57.69123882795848]]]},"properties":{"delay":1.387,"trips":7,"residents":7}},{"type":"Feature","geometry":{"type":"Polygon","coordinates":[[[11.959843784711898,57.6930327970752],[11.95969338957687,57.69482676542996],[11.963043745367347,57.69490725609577],[11.96319397539161,57.6931132821926],[11.959843784711898,57.6930327970752]]]},"properties":{"delay":0.607,"trips":23,"residents":21}},{"type":"Feature","geometry":{"type":"Polygon","coordinates":[[[11.95969338957687,57.69482676542996],[11.95954297659719,57.69662073302272],[11.96289349751793,57.69670122923752],[11.963043745367347,57.69490725609577],[11.95969338957687,57.69482676542996]]]},"properties":{"delay":0.13,"trips":13,"residents":12}},{"type":"Feature","geometry":{"type":"Polygon","coordinates":[[[11.95954297659719,57.69662073302272],[11.959392545769918,57.69841469985345],[11.962743231840427,57.69849520161778],[11.96289349751793,57.69670122923752],[11.95954297659719,57.69662073302272]]]},"properties":{"delay":1.542,"trips":1,"residents":1}},{"type":"Feature","geometry":{"type":"Polygon","coordinates":[[[11.959392545769918,57.69841469985345],[11.959242097092122,57.700208665922155],[11.962592948331904,57.70028917323654],[11.962743231840427,57.69849520161778],[11.959392545769918,57.69841469985345]]]},"properties":{"delay":0.125,"trips":1,"residents":1}},{"type":"Feature","geometry":{"type":"Polygon","coordinates":[[[11.959242097092122,57.700208665922155],[11.959091630560863,57.70200263122877],[11.962442646989423,57.70208314409378],[11.962592948331904,57.70028917323654],[11.959242097092122,57.700208665922155]]]},"properties":{"delay":0.125,"trips":1,"residents":1}},{"type":"Feature","geometry":{"type":"Polygon","coordinates":[[[11.959091630560863,57.70200263122877],[11.958941146173197,57.703796595773305],[11.962292327810047,57.70387711418948],[11.962442646989423,57.70208314409378],[11.959091630560863,57.70200263122877]]]},"properties":{"delay":0.997,"trips":6,"residents":6}},{"type":"Feature","geometry":{"type":"Polygon","coordinates":[[[11.958941146173197,57.703796595773305],[11.95879064392619,57.7055905595557],[11.962141990790846,57.70567108352358],[11.962292327810047,57.70387711418948],[11.958941146173197,57.703796595773305]]]},"properties":{"delay":0.125,"trips":1,"residents":1}},{"type":"Feature","geometry":{"type":"Polygon","coordinates":[[[11.95879064392619,57.7055905595557],[11.958640123816899,57.70738452257594],[11.961991635928877,57.70746505209608],[11.962141990790846,57.70567108352358],[11.95879064392619,57.7055905595557]]]},"properties":{"delay":2.208,"trips":1,"residents":1}},{"type":"Feature","geometry":{"type":"Polygon","coordinates":[[[11.963644558542805,57.68773135591462],[11.963494381976407,57.68952533210199],[11.966844260309424,57.68960571754748],[11.9669942718206,57.68781173581942],[11.963644558542805,57.68773135591462]]]},"properties":{"delay":1.587,"trips":7,"residents":7}},{"type":"Feature","geometry":{"type":"Polygon","coordinates":[[[11.963494381976407,57.68952533210199],[11.963344187593652,57.69131930752798],[11.96669423100138,57.691399698514736],[11.966844260309424,57.68960571754748],[11.963494381976407,57.68952533210199]]]},"properties":{"delay":1.324,"trips":4,"residents":4}},{"type":"Feature","geometry":{"type":"Polygon","coordinates":[[[11.963344187593652,57.69131930752798],[11.96319397539161,57.6931132821926],[11.966544183893541,57.693193678721165],[11.96669423100138,57.691399698514736],[11.963344187593652,57.69131930752798]]]},"properties":{"delay":0.157,"trips":2,"residents":2}},{"type":"Feature","geometry":{"type":"Polygon","coordinates":[[[11.96319397539161,57.6931132821926],[11.963043745367347,57.69490725609577],[11.966394118982977,57.694987658166696],[11.966544183893541,57.693193678721165],[11.96319397539161,57.6931132821926]]]},"properties":{"delay":2.957,"trips":7,"residents":7}},{"type":"Feature","geometry":{"type":"Polygon","coordinates":[[[11.963043745367347,57.69490725609577],[11.96289349751793,57.69670122923752],[11.96624403626676,57.69678163685133],[11.966394118982977,57.694987658166696],[11.963043745367347,57.69490725609577]]]},"properties":{"delay":0.369,"trips":6,"residents":6}},{"type":"Feature","geometry":{"type":"Polygon","coordinates":[[[11.96289349751793,57.69670122923752],[11.962743231840427,57.69849520161778],[11.966093935741958,57.698575614775024],[11.96624403626676,57.69678163685133],[11.96289349751793,57.69670122923752]]]},"properties":{"delay":0.129,"trips":7,"residents":7}},{"type":"Feature","geometry":{"type":"Polygon","coordinates":[[[11.962743231840427,57.69849520161778],[11.962592948331904,57.70028917323654],[11.96594381740564,57.70036959193776],[11.966093935741958,57.698575614775024],[11.962743231840427,57.69849520161778]]]},"properties":{"delay":1.628,"trips":4,"residents":4}},{"type":"Feature","geometry":{"type":"Polygon","coordinates":[[[11.961991635928877,57.70746505209608],[11.961841263221206,57.709259019906945],[11.96519295844867,57.70933946633632],[11.96534316588656,57.70754549297873],[11.961991635928877,57.70746505209608]]]},"properties":{"delay":0.691,"trips":7,"residents":7}},{"type":"Feature","geometry":{"type":"Polygon","coordinates":[[[11.960336553984094,57.72719865612021],[11.960185984779619,57.728992615551405],[11.963539499264012,57.72907312303081],[11.963689902983758,57.72727915804686],[11.960336553984094,57.72719865612021]]]},"properties":{"delay":2.313,"trips":3,"residents":3}},{"type":"Feature","geometry":{"type":"Polygon","coordinates":[[[11.967294241464064,57.68422377008092],[11.970643642477958,57.68430405034652],[11.970742948281407,57.68311474353979],[11.967387015045704,57.683113923381896],[11.967294241464064,57.68422377008092]]]},"properties":{"delay":2.157,"trips":1,"residents":1}},{"type":"Feature","geometry":{"type":"Polygon","coordinates":[[[11.967294241464064,57.68422377008092],[11.967144265537836,57.686017753330546],[11.970493831570911,57.686098039129696],[11.970643642477958,57.68430405034652],[11.967294241464064,57.68422377008092]]]},"properties":{"delay":1.099,"trips":12,"residents":12}},{"type":"Feature","geometry":{"type":"Polygon","coordinates":[[[11.967144265537836,57.686017753330546],[11.9669942718206,57.68781173581942],[11.970344002892334,57.68789202715265],[11.970493831570911,57.686098039129696],[11.967144265537836,57.686017753330546]]]},"properties":{"delay":0.157,"trips":2,"residents":2}},{"type":"Feature","geometry":{"type":"Polygon","coordinates":[[[11.9669942718206,57.68781173581942],[11.966844260309424,57.68960571754748],[11.970194156439309,57.68968601441534],[11.970344002892334,57.68789202715265],[11.9669942718206,57.68781173581942]]]},"properties":{"delay":1.157,"trips":3,"residents":3}},{"type":"Feature","geometry":{"type":"Polygon","coordinates":[[[11.966844260309424,57.68960571754748],[11.96669423100138,57.691399698514736],[11.970044292208904,57.691480000917764],[11.970194156439309,57.68968601441534],[11.966844260309424,57.68960571754748]]]},"properties":{"delay":0.157,"trips":5,"residents":5}},{"type":"Feature","geometry":{"type":"Polygon","coordinates":[[[11.96669423100138,57.691399698514736],[11.966544183893541,57.693193678721165],[11.969894410198197,57.6932739866599],[11.970044292208904,57.691480000917764],[11.96669423100138,57.691399698514736]]]},"properties":{"delay":0.157,"trips":7,"residents":7}},{"type":"Feature","geometry":{"type":"Polygon","coordinates":[[[11.966544183893541,57.693193678721165],[11.966394118982977,57.694987658166696],[11.969744510404263,57.695067971641706],[11.969894410198197,57.6932739866599],[11.966544183893541,57.693193678721165]]]},"properties":{"delay":0.407,"trips":8,"residents":8}},{"type":"Feature","geometry":{"type":"Polygon","coordinates":[[[11.966394118982977,57.694987658166696],[11.96624403626676,57.69678163685133],[11.969594592824174,57.69686195586314],[11.969744510404263,57.695067971641706],[11.966394118982977,57.694987658166696]]]},"properties":{"delay":1.482,"trips":12,"residents":12}},{"type":"Feature","geometry":{"type":"Polygon","coordinates":[[[11.96624403626676,57.69678163685133],[11.966093935741958,57.698575614775024],[11.969444657455005,57.69865593932422],[11.969594592824174,57.69686195586314],[11.96624403626676,57.69678163685133]]]},"properties":{"delay":0.889,"trips":8,"residents":8}},{"type":"Feature","geometry":{"type":"Polygon","coordinates":[[[11.966093935741958,57.698575614775024],[11.96594381740564,57.70036959193776],[11.969294704293825,57.700449922024866],[11.969444657455005,57.69865593932422],[11.966093935741958,57.698575614775024]]]},"properties":{"delay":0.157,"trips":5,"residents":5}},{"type":"Feature","geometry":{"type":"Polygon","coordinates":[[[11.96534316588656,57.70754549297873],[11.96519295844867,57.70933946633632],[11.968544671505251,57.7094198241211],[11.968694713670423,57.707625845222886],[11.96534316588656,57.70754549297873]]]},"properties":{"delay":1.435,"trips":3,"residents":3}},{"type":"Feature","geometry":{"type":"Polygon","coordinates":[[[11.963689902983758,57.72727915804686],[11.963539499264012,57.72907312303081],[11.966893031609851,57.72915354179865],[11.967043269841923,57.72735957126807],[11.963689902983758,57.72727915804686]]]},"properties":{"delay":1.041,"trips":7,"residents":7}},{"type":"Feature","geometry":{"type":"Polygon","coordinates":[[[11.970643642477958,57.68430405034652],[11.973993061260456,57.684384242051756],[11.974098884633241,57.68311547465],[11.970742948281407,57.68311474353979],[11.970643642477958,57.68430405034652]]]},"properties":{"delay":0.507,"trips":3,"residents":3}},{"type":"Feature","geometry":{"type":"Polygon","coordinates":[[[11.970643642477958,57.68430405034652],[11.970493831570911,57.686098039129696],[11.973843415375512,57.68617823636239],[11.973993061260456,57.684384242051756],[11.970643642477958,57.68430405034652]]]},"properties":{"delay":1.541,"trips":2,"residents":2}},{"type":"Feature","geometry":{"type":"Polygon","coordinates":[[[11.970344002892334,57.68789202715265],[11.970194156439309,57.68968601441534],[11.97354407034657,57.68976622270458],[11.973693751738523,57.687972229913335],[11.970344002892334,57.68789202715265]]]},"properties":{"delay":0.407,"trips":16,"residents":16}},{"type":"Feature","geometry":{"type":"Polygon","coordinates":[[[11.970194156439309,57.68968601441534],[11.970044292208904,57.691480000917764],[11.97339437119673,57.691560214736114],[11.97354407034657,57.68976622270458],[11.970194156439309,57.68968601441534]]]},"properties":{"delay":0.757,"trips":5,"residents":5}},{"type":"Feature","geometry":{"type":"Polygon","coordinates":[[[11.970044292208904,57.691480000917764],[11.969894410198197,57.6932739866599],[11.973244654286082,57.693354206007875],[11.97339437119673,57.691560214736114],[11.970044292208904,57.691480000917764]]]},"properties":{"delay":0.409,"trips":11,"residents":11}},{"type":"Feature","geometry":{"type":"Polygon","coordinates":[[[11.969894410198197,57.6932739866599],[11.969744510404263,57.695067971641706],[11.973094919611702,57.69514819651986],[11.973244654286082,57.693354206007875],[11.969894410198197,57.6932739866599]]]},"properties":{"delay":0.311,"trips":13,"residents":13}},{"type":"Feature","geometry":{"type":"Polygon","coordinates":[[[11.969744510404263,57.695067971641706],[11.969594592824174,57.69686195586314],[11.97294516717067,57.69694218627204],[11.973094919611702,57.69514819651986],[11.969744510404263,57.695067971641706]]]},"properties":{"delay":1.568,"trips":21,"residents":19}},{"type":"Feature","geometry":{"type":"Polygon","coordinates":[[[11.969594592824174,57.69686195586314],[11.969444657455005,57.69865593932422],[11.972795396960061,57.698736175264365],[11.97294516717067,57.69694218627204],[11.969594592824174,57.69686195586314]]]},"properties":{"delay":0.157,"trips":1,"residents":1}},{"type":"Feature","geometry":{"type":"Polygon","coordinates":[[[11.969444657455005,57.69865593932422],[11.969294704293825,57.700449922024866],[11.972645608976947,57.70053016349683],[11.972795396960061,57.698736175264365],[11.969444657455005,57.69865593932422]]]},"properties":{"delay":0.157,"trips":10,"residents":10}},{"type":"Feature","geometry":{"type":"Polygon","coordinates":[[[11.969294704293825,57.700449922024866],[11.969144733337705,57.702243903965076],[11.972495803218406,57.7023241509694],[11.972645608976947,57.70053016349683],[11.969294704293825,57.700449922024866]]]},"properties":{"delay":2.824,"trips":2,"residents":2}},{"type":"Feature","geometry":{"type":"Polygon","coordinates":[[[11.967043269841923,57.72735957126807],[11.966893031609851,57.72915354179865],[11.970246581797573,57.72923387185396],[11.970396654539039,57.72743989578278],[11.967043269841923,57.72735957126807]]]},"properties":{"delay":0.157,"trips":1,"residents":1}},{"type":"Feature","geometry":{"type":"Polygon","coordinates":[[[11.973993061260456,57.684384242051756],[11.97734249779208,57.68446434519564],[11.977454824081452,57.68311611671237],[11.974098884633241,57.68311547465],[11.973993061260456,57.684384242051756]]]},"properties":{"delay":0.519,"trips":3,"residents":3}},{"type":"Feature","geometry":{"type":"Polygon","coordinates":[[[11.973993061260456,57.684384242051756],[11.973843415375512,57.68617823636239],[11.977193016932157,57.686258345027625],[11.97734249779208,57.68446434519564],[11.973993061260456,57.684384242051756]]]},"properties":{"delay":0.995,"trips":7,"residents":7}},{"type":"Feature","geometry":{"type":"Polygon","coordinates":[[[11.973244654286082,57.693354206007875],[11.973094919611702,57.69514819651986],[11.976445346585797,57.69522833280017],[11.976594916137696,57.69343433676409],[11.973244654286082,57.693354206007875]]]},"properties":{"delay":0.157,"trips":1,"residents":1}},{"type":"Feature","geometry":{"type":"Polygon","coordinates":[[[11.97294516717067,57.69694218627204],[11.972795396960061,57.698736175264365],[11.97614615423762,57.6988163225945],[11.976295759286746,57.69702232807698],[11.97294516717067,57.69694218627204]]]},"properties":{"delay":0.157,"trips":6,"residents":6}},{"type":"Feature","geometry":{"type":"Polygon","coordinates":[[[11.972795396960061,57.698736175264365],[11.972645608976947,57.70053016349683],[11.975996531435499,57.70061031635271],[11.97614615423762,57.6988163225945],[11.972795396960061,57.698736175264365]]]},"properties":{"delay":0.157,"trips":8,"residents":7}},{"type":"Feature","geometry":{"type":"Polygon","coordinates":[[[11.972645608976947,57.70053016349683],[11.972495803218406,57.7023241509694],[11.97584689087746,57.702404309351564],[11.975996531435499,57.70061031635271],[11.972645608976947,57.70053016349683]]]},"properties":{"delay":2.602,"trips":3,"residents":3}},{"type":"Feature","geometry":{"type":"Polygon","coordinates":[[[11.970396654539039,57.72743989578278],[11.970246581797573,57.72923387185396],[11.97360014980762,57.729314113195706],[11.97375005705554,57.72752013159009],[11.970396654539039,57.72743989578278]]]},"properties":{"delay":0.157,"trips":2,"residents":2}},{"type":"Feature","geometry":{"type":"Polygon","coordinates":[[[11.97360014980762,57.729314113195706],[11.970246581797573,57.72923387185396],[11.97016756888951,57.730178309683374],[11.973527867737136,57.73017905638589],[11.97360014980762,57.729314113195706]]]},"properties":{"delay":0.157,"trips":2,"residents":2}},{"type":"Feature","geometry":{"type":"Polygon","coordinates":[[[11.97734249779208,57.68446434519564],[11.977193016932157,57.686258345027625],[11.980542636221358,57.68633836512449],[11.980691952053341,57.6845443597772],[11.97734249779208,57.68446434519564]]]},"properties":{"delay":0.157,"trips":1,"residents":1}},{"type":"Feature","geometry":{"type":"Polygon","coordinates":[[[11.977193016932157,57.686258345027625],[11.977043518339674,57.68805234410053],[11.9803933026763,57.6881323697132],[11.980542636221358,57.68633836512449],[11.977193016932157,57.686258345027625]]]},"properties":{"delay":3.157,"trips":1,"residents":1}},{"type":"Feature","geometry":{"type":"Polygon","coordinates":[[[11.976894002011715,57.68984634241424],[11.976744467945363,57.69164033996876],[11.980094582435306,57.69172037661477],[11.980243951415254,57.689926373543294],[11.976894002011715,57.68984634241424]]]},"properties":{"delay":0.157,"trips":2,"residents":2}},{"type":"Feature","geometry":{"type":"Polygon","coordinates":[[[11.976744467945363,57.69164033996876],[11.976594916137696,57.69343433676409],[11.979945195733544,57.69351437892756],[11.980094582435306,57.69172037661477],[11.976744467945363,57.69164033996876]]]},"properties":{"delay":0.379,"trips":6,"residents":6}},{"type":"Feature","geometry":{"type":"Polygon","coordinates":[[[11.976594916137696,57.69343433676409],[11.976445346585797,57.69522833280017],[11.979795791307042,57.69530838048167],[11.979945195733544,57.69351437892756],[11.976594916137696,57.69343433676409]]]},"properties":{"delay":0.491,"trips":2,"residents":2}},{"type":"Feature","geometry":{"type":"Polygon","coordinates":[[[11.976295759286746,57.69702232807698],[11.97614615423762,57.6988163225945],[11.979496929268173,57.69889638131366],[11.979646369152894,57.697102381277034],[11.976295759286746,57.69702232807698]]]},"properties":{"delay":0.157,"trips":6,"residents":6}},{"type":"Feature","geometry":{"type":"Polygon","coordinates":[[[11.97614615423762,57.6988163225945],[11.975996531435499,57.70061031635271],[11.979347471649968,57.70069038059151],[11.979496929268173,57.69889638131366],[11.97614615423762,57.6988163225945]]]},"properties":{"delay":0.157,"trips":1,"residents":1}},{"type":"Feature","geometry":{"type":"Polygon","coordinates":[[[11.975996531435499,57.70061031635271],[11.97584689087746,57.702404309351564],[11.979197996295355,57.70248437911055],[11.979347471649968,57.70069038059151],[11.975996531435499,57.70061031635271]]]},"properties":{"delay":0.157,"trips":1,"residents":1}},{"type":"Feature","geometry":{"type":"Polygon","coordinates":[[[11.980691952053341,57.6845443597772],[11.980542636221358,57.68633836512449],[11.983892273223631,57.68641829665196],[11.984041424024763,57.68462428579542],[11.980691952053341,57.6845443597772]]]},"properties":{"delay":1.491,"trips":4,"residents":4}},{"type":"Feature","geometry":{"type":"Polygon","coordinates":[[[11.980542636221358,57.68633836512449],[11.9803933026763,57.6881323697132],[11.983743104728912,57.688212306750444],[11.983892273223631,57.68641829665196],[11.980542636221358,57.68633836512449]]]},"properties":{"delay":1.413,"trips":3,"residents":3}},{"type":"Feature","geometry":{"type":"Polygon","coordinates":[[[11.9803933026763,57.6881323697132],[11.980243951415254,57.689926373543294],[11.983593918537697,57.69000631609084],[11.983743104728912,57.688212306750444],[11.9803933026763,57.6881323697132]]]},"properties":{"delay":1.604,"trips":5,"residents":5}},{"type":"Feature","geometry":{"type":"Polygon","coordinates":[[[11.980243951415254,57.689926373543294],[11.980094582435306,57.69172037661477],[11.983444714647073,57.691800324673125],[11.983593918537697,57.69000631609084],[11.980243951415254,57.689926373543294]]]},"properties":{"delay":0.157,"trips":1,"residents":1}},{"type":"Feature","geometry":{"type":"Polygon","coordinates":[[[11.980094582435306,57.69172037661477],[11.979945195733544,57.69351437892756],[11.983295493054126,57.693594332497334],[11.983444714647073,57.691800324673125],[11.980094582435306,57.69172037661477]]]},"properties":{"delay":2.853,"trips":4,"residents":4}},{"type":"Feature","geometry":{"type":"Polygon","coordinates":[[[11.979646369152894,57.697102381277034],[11.979496929268173,57.69889638131366],[11.982847722032217,57.698976351420846],[11.98299699674961,57.6971823458712],[11.979646369152894,57.697102381277034]]]},"properties":{"delay":0.157,"trips":6,"residents":5}},{"type":"Feature","geometry":{"type":"Polygon","coordinates":[[[11.979496929268173,57.69889638131366],[11.979347471649968,57.70069038059151],[11.982698429600845,57.70077035621225],[11.982847722032217,57.698976351420846],[11.979496929268173,57.69889638131366]]]},"properties":{"delay":0.975,"trips":11,"residents":11}},{"type":"Feature","geometry":{"type":"Polygon","coordinates":[[[11.979197996295355,57.70248437911055],[11.979048503201414,57.7042783768708],[11.982399791584497,57.70435836352032],[11.982549119452576,57.70256436024543],[11.979197996295355,57.70248437911055]]]},"properties":{"delay":2.291,"trips":5,"residents":5}},{"type":"Feature","geometry":{"type":"Polygon","coordinates":[[[11.979048503201414,57.7042783768708],[11.978898992365227,57.70607237387218],[11.982250445993689,57.706152366036896],[11.982399791584497,57.70435836352032],[11.979048503201414,57.7042783768708]]]},"properties":{"delay":0.157,"trips":3,"residents":3}},{"type":"Feature","geometry":{"type":"Polygon","coordinates":[[[11.978898992365227,57.70607237387218],[11.978749463783876,57.70786637011468],[11.982101082677236,57.70794636779511],[11.982250445993689,57.706152366036896],[11.978898992365227,57.70607237387218]]]},"properties":{"delay":0.157,"trips":1,"residents":1}},{"type":"Feature","geometry":{"type":"Polygon","coordinates":[[[11.978749463783876,57.70786637011468],[11.978599917454432,57.70966036559826],[11.981951701632218,57.70974036879501],[11.982101082677236,57.70794636779511],[11.978749463783876,57.70786637011468]]]},"properties":{"delay":0.157,"trips":3,"residents":3}},{"type":"Feature","geometry":{"type":"Polygon","coordinates":[[[11.984041424024763,57.68462428579542],[11.98739091368686,57.6847041232494],[11.987522660806832,57.68311750861075],[11.984166712188001,57.683117133692896],[11.984041424024763,57.68462428579542]]]},"properties":{"delay":0.157,"trips":2,"residents":2}},{"type":"Feature","geometry":{"type":"Polygon","coordinates":[[[11.983892273223631,57.68641829665196],[11.983743104728912,57.688212306750444],[11.987092924478024,57.68829215521122],[11.987241927919492,57.68649813960908],[11.983892273223631,57.68641829665196]]]},"properties":{"delay":0.657,"trips":8,"residents":8}},{"type":"Feature","geometry":{"type":"Polygon","coordinates":[[[11.983743104728912,57.688212306750444],[11.983593918537697,57.69000631609084],[11.986943903359547,57.69008617005586],[11.987092924478024,57.68829215521122],[11.983743104728912,57.688212306750444]]]},"properties":{"delay":2.729,"trips":7,"residents":7}},{"type":"Feature","geometry":{"type":"Polygon","coordinates":[[[11.983593918537697,57.69000631609084],[11.983444714647073,57.691800324673125],[11.986794864561157,57.69188018414294],[11.986943903359547,57.69008617005586],[11.983593918537697,57.69000631609084]]]},"properties":{"delay":0.157,"trips":1,"residents":1}},{"type":"Feature","geometry":{"type":"Polygon","coordinates":[[[11.983444714647073,57.691800324673125],[11.983295493054126,57.693594332497334],[11.986645808079938,57.69367419747242],[11.986794864561157,57.69188018414294],[11.983444714647073,57.691800324673125]]]},"properties":{"delay":0.157,"trips":1,"residents":1}},{"type":"Feature","geometry":{"type":"Polygon","coordinates":[[[11.983295493054126,57.693594332497334],[11.98314625375594,57.695388339563365],[11.986496733912988,57.695468210044304],[11.986645808079938,57.69367419747242],[11.983295493054126,57.693594332497334]]]},"properties":{"delay":0.157,"trips":3,"residents":3}},{"type":"Feature","geometry":{"type":"Polygon","coordinates":[[[11.98314625375594,57.695388339563365],[11.98299699674961,57.6971823458712],[11.98634764205739,57.69726222185854],[11.986496733912988,57.695468210044304],[11.98314625375594,57.695388339563365]]]},"properties":{"delay":1.824,"trips":3,"residents":3}},{"type":"Feature","geometry":{"type":"Polygon","coordinates":[[[11.98299699674961,57.6971823458712],[11.982847722032217,57.698976351420846],[11.986198532510237,57.69905623291512],[11.98634764205739,57.69726222185854],[11.98299699674961,57.6971823458712]]]},"properties":{"delay":0.157,"trips":12,"residents":12}},{"type":"Feature","geometry":{"type":"Polygon","coordinates":[[[11.982847722032217,57.698976351420846],[11.982698429600845,57.70077035621225],[11.986049405268613,57.70085024321401],[11.986198532510237,57.69905623291512],[11.982847722032217,57.698976351420846]]]},"properties":{"delay":0.157,"trips":8,"residents":8}},{"type":"Feature","geometry":{"type":"Polygon","coordinates":[[[11.982698429600845,57.70077035621225],[11.982549119452576,57.70256436024543],[11.985900260329608,57.7026442527552],[11.986049405268613,57.70085024321401],[11.982698429600845,57.70077035621225]]]},"properties":{"delay":0.157,"trips":7,"residents":7}},{"type":"Feature","geometry":{"type":"Polygon","coordinates":[[[11.982549119452576,57.70256436024543],[11.982399791584497,57.70435836352032],[11.985751097690306,57.70443826153864],[11.985900260329608,57.7026442527552],[11.982549119452576,57.70256436024543]]]},"properties":{"delay":0.824,"trips":9,"residents":9}},{"type":"Feature","geometry":{"type":"Polygon","coordinates":[[[11.982101082677236,57.70794636779511],[11.981951701632218,57.70974036879501],[11.985303503541488,57.70982028334228],[11.985452719299161,57.708026276832214],[11.982101082677236,57.70794636779511]]]},"properties":{"delay":0.196,"trips":17,"residents":17}},{"type":"Feature","geometry":{"type":"Polygon","coordinates":[[[11.98739091368686,57.6847041232494],[11.99074042102015,57.68478387213814],[11.99087861244303,57.683117794480125],[11.987522660806832,57.68311750861075],[11.98739091368686,57.6847041232494]]]},"properties":{"delay":2.746,"trips":3,"residents":3}},{"type":"Feature","geometry":{"type":"Polygon","coordinates":[[[11.98739091368686,57.6847041232494],[11.987241927919492,57.68649813960908],[11.99059160028945,57.68657789399485],[11.99074042102015,57.68478387213814],[11.98739091368686,57.6847041232494]]]},"properties":{"delay":1.041,"trips":2,"residents":2}},{"type":"Feature","geometry":{"type":"Polygon","coordinates":[[[11.987241927919492,57.68649813960908],[11.987092924478024,57.68829215521122],[11.99044276190414,57.68837191509462],[11.99059160028945,57.68657789399485],[11.987241927919492,57.68649813960908]]]},"properties":{"delay":0.511,"trips":5,"residents":5}},{"type":"Feature","geometry":{"type":"Polygon","coordinates":[[[11.987092924478024,57.68829215521122],[11.986943903359547,57.69008617005586],[11.990293905861314,57.69016593543738],[11.99044276190414,57.68837191509462],[11.987092924478024,57.68829215521122]]]},"properties":{"delay":0.872,"trips":7,"residents":7}},{"type":"Feature","geometry":{"type":"Polygon","coordinates":[[[11.986943903359547,57.69008617005586],[11.986794864561157,57.69188018414294],[11.990145032158068,57.69195995502313],[11.990293905861314,57.69016593543738],[11.986943903359547,57.69008617005586]]]},"properties":{"delay":0.248,"trips":11,"residents":11}},{"type":"Feature","geometry":{"type":"Polygon","coordinates":[[[11.986794864561157,57.69188018414294],[11.986645808079938,57.69367419747242],[11.989996140791492,57.693753973851855],[11.990145032158068,57.69195995502313],[11.986794864561157,57.69188018414294]]]},"properties":{"delay":3.157,"trips":4,"residents":4}},{"type":"Feature","geometry":{"type":"Polygon","coordinates":[[[11.986645808079938,57.69367419747242],[11.986496733912988,57.695468210044304],[11.98984723175868,57.69554799192349],[11.989996140791492,57.693753973851855],[11.986645808079938,57.69367419747242]]]},"properties":{"delay":0.532,"trips":8,"residents":8}},{"type":"Feature","geometry":{"type":"Polygon","coordinates":[[[11.985452719299161,57.708026276832214],[11.985303503541488,57.70982028334228],[11.988655323162712,57.709900109239136],[11.988804373630126,57.70810609722496],[11.985452719299161,57.708026276832214]]]},"properties":{"delay":0.157,"trips":5,"residents":5}},{"type":"Feature","geometry":{"type":"Polygon","coordinates":[[[11.985303503541488,57.70982028334228],[11.985154270071858,57.71161428909453],[11.988506255002875,57.71169412049602],[11.988655323162712,57.709900109239136],[11.985303503541488,57.70982028334228]]]},"properties":{"delay":0.157,"trips":7,"residents":6}},{"type":"Feature","geometry":{"type":"Polygon","coordinates":[[[11.99074042102015,57.68478387213814],[11.994089946005143,57.68486353246066],[11.994234567076846,57.68311799130081],[11.99087861244303,57.683117794480125],[11.99074042102015,57.68478387213814]]]},"properties":{"delay":2.391,"trips":1,"residents":1}},{"type":"Feature","geometry":{"type":"Polygon","coordinates":[[[11.99074042102015,57.68478387213814],[11.99059160028945,57.68657789399485],[11.99394129031402,57.686657559808346],[11.994089946005143,57.68486353246066],[11.99074042102015,57.68478387213814]]]},"properties":{"delay":0.157,"trips":5,"residents":5}},{"type":"Feature","geometry":{"type":"Polygon","coordinates":[[[11.99059160028945,57.68657789399485],[11.99044276190414,57.68837191509462],[11.993792616987774,57.68845158639962],[11.99394129031402,57.686657559808346],[11.99059160028945,57.68657789399485]]]},"properties":{"delay":0.157,"trips":12,"residents":12}},{"type":"Feature","geometry":{"type":"Polygon","coordinates":[[[11.99044276190414,57.68837191509462],[11.990293905861314,57.69016593543738],[11.993643926023504,57.69024561223445],[11.993792616987774,57.68845158639962],[11.99044276190414,57.68837191509462]]]},"properties":{"delay":0.157,"trips":5,"residents":5}},{"type":"Feature","geometry":{"type":"Polygon","coordinates":[[[11.990293905861314,57.69016593543738],[11.990145032158068,57.69195995502313],[11.993495217418305,57.6920396373128],[11.993643926023504,57.69024561223445],[11.990293905861314,57.69016593543738]]]},"properties":{"delay":0.157,"trips":6,"residents":6}},{"type":"Feature","geometry":{"type":"Polygon","coordinates":[[[11.990145032158068,57.69195995502313],[11.989996140791492,57.693753973851855],[11.993346491169278,57.69383366163466],[11.993495217418305,57.6920396373128],[11.990145032158068,57.69195995502313]]]},"properties":{"delay":0.157,"trips":1,"residents":1}},{"type":"Feature","geometry":{"type":"Polygon","coordinates":[[[11.989698305056729,57.697342009238035],[11.989549360682728,57.699136025795475],[11.992900206530177,57.69921573006094],[11.993048985728118,57.697421708008754],[11.989698305056729,57.697342009238035]]]},"properties":{"delay":0.157,"trips":1,"residents":1}},{"type":"Feature","geometry":{"type":"Polygon","coordinates":[[[11.989549360682728,57.699136025795475],[11.989400398633766,57.70093004159576],[11.992751409676787,57.70100975135654],[11.992900206530177,57.69921573006094],[11.989549360682728,57.699136025795475]]]},"properties":{"delay":3.157,"trips":2,"residents":2}},{"type":"Feature","geometry":{"type":"Polygon","coordinates":[[[11.988655323162712,57.709900109239136],[11.988506255002875,57.71169412049602],[11.991858257629227,57.71177386324003],[11.992007160476364,57.70997984648458],[11.988655323162712,57.709900109239136]]]},"properties":{"delay":1.491,"trips":3,"residents":3}},{"type":"Feature","geometry":{"type":"Polygon","coordinates":[[[11.988506255002875,57.71169412049602],[11.988357169147694,57.713488130995586],[11.991709337106283,57.7135678792387],[11.991858257629227,57.71177386324003],[11.988506255002875,57.71169412049602]]]},"properties":{"delay":0.157,"trips":1,"residents":1}},{"type":"Feature","geometry":{"type":"Polygon","coordinates":[[[11.994089946005143,57.68486353246066],[11.99394129031402,57.686657559808346],[11.997290997973712,57.68673713704859],[11.997439488622359,57.68494310421599],[11.994089946005143,57.68486353246066]]]},"properties":{"delay":0.157,"trips":4,"residents":4}},{"type":"Feature","geometry":{"type":"Polygon","coordinates":[[[11.99394129031402,57.686657559808346],[11.993792616987774,57.68845158639962],[11.997142489709429,57.68853116912528],[11.997290997973712,57.68673713704859],[11.99394129031402,57.686657559808346]]]},"properties":{"delay":0.157,"trips":4,"residents":4}},{"type":"Feature","geometry":{"type":"Polygon","coordinates":[[[11.993792616987774,57.68845158639962],[11.993643926023504,57.69024561223445],[11.996993963826618,57.690325200446075],[11.997142489709429,57.68853116912528],[11.993792616987774,57.68845158639962]]]},"properties":{"delay":0.157,"trips":1,"residents":1}},{"type":"Feature","geometry":{"type":"Polygon","coordinates":[[[11.993048985728118,57.697421708008754],[11.992900206530177,57.69921573006094],[11.996251070033075,57.69929534571058],[11.996399684052047,57.69750131816971],[11.993048985728118,57.697421708008754]]]},"properties":{"delay":0.157,"trips":1,"residents":1}},{"type":"Feature","geometry":{"type":"Polygon","coordinates":[[[11.992900206530177,57.69921573006094],[11.992751409676787,57.70100975135654],[11.996102438378163,57.70108937249539],[11.996251070033075,57.69929534571058],[11.992900206530177,57.69921573006094]]]},"properties":{"delay":1.357,"trips":5,"residents":5}},{"type":"Feature","geometry":{"type":"Polygon","coordinates":[[[11.992156045650605,57.70818582897239],[11.992007160476364,57.70997984648458],[11.99535901546291,57.710059495077665],[11.995507735341068,57.70826547207354],[11.992156045650605,57.70818582897239]]]},"properties":{"delay":0.157,"trips":1,"residents":1}},{"type":"Feature","geometry":{"type":"Polygon","coordinates":[[[11.992007160476364,57.70997984648458],[11.991858257629227,57.71177386324003],[11.995210277931386,57.711853517325586],[11.99535901546291,57.710059495077665],[11.992007160476364,57.70997984648458]]]},"properties":{"delay":0.157,"trips":6,"residents":6}},{"type":"Feature","geometry":{"type":"Polygon","coordinates":[[[11.991858257629227,57.71177386324003],[11.991709337106283,57.7135678792387],[11.99506152274359,57.71364753881726],[11.995210277931386,57.711853517325586],[11.991858257629227,57.71177386324003]]]},"properties":{"delay":0.157,"trips":3,"residents":3}},{"type":"Feature","geometry":{"type":"Polygon","coordinates":[[[11.997587961658269,57.683149070627536],[11.997439488622359,57.68494310421599],[12.000305145848172,57.68501111015526],[12.000305093847436,57.68321355219734],[11.997587961658269,57.683149070627536]]]},"properties":{"delay":0.157,"trips":2,"residents":2}},{"type":"Feature","geometry":{"type":"Polygon","coordinates":[[[11.997439488622359,57.68494310421599],[11.997290997973712,57.68673713704859],[12.000305194910158,57.686808667669176],[12.000305145848172,57.68501111015526],[11.997439488622359,57.68494310421599]]]},"properties":{"delay":0.157,"trips":2,"residents":2}},{"type":"Feature","geometry":{"type":"Polygon","coordinates":[[[11.996696859193797,57.69391326081986],[11.996548280437988,57.6957072898728],[11.999898831232594,57.695786805940955],[12.000047244845549,57.69399277140651],[11.996696859193797,57.69391326081986]]]},"properties":{"delay":0.157,"trips":5,"residents":5}},{"type":"Feature","geometry":{"type":"Polygon","coordinates":[[[11.996548280437988,57.6957072898728],[11.996399684052047,57.69750131816971],[11.999750400009013,57.69758083971992],[11.999898831232594,57.695786805940955],[11.996548280437988,57.6957072898728]]]},"properties":{"delay":1.157,"trips":6,"residents":6}},{"type":"Feature","geometry":{"type":"Polygon","coordinates":[[[11.996399684052047,57.69750131816971],[11.996251070033075,57.69929534571058],[11.999601951171908,57.6993748727434],[11.999750400009013,57.69758083971992],[11.996399684052047,57.69750131816971]]]},"properties":{"delay":0.157,"trips":1,"residents":1}},{"type":"Feature","geometry":{"type":"Polygon","coordinates":[[[11.996251070033075,57.69929534571058],[11.996102438378163,57.70108937249539],[11.999453484718378,57.701168905011336],[11.999601951171908,57.6993748727434],[11.996251070033075,57.69929534571058]]]},"properties":{"delay":0.157,"trips":1,"residents":1}},{"type":"Feature","geometry":{"type":"Polygon","coordinates":[[[11.995656437568766,57.70647144831323],[11.995507735341068,57.70826547207354],[11.99885944268199,57.70834502652745],[11.999007979630226,57.70655099728182],[11.995656437568766,57.70647144831323]]]},"properties":{"delay":0.157,"trips":1,"residents":1}},{"type":"Feature","geometry":{"type":"Polygon","coordinates":[[[11.995210277931386,57.711853517325586],[11.99506152274359,57.71364753881726],[11.998413726040077,57.7137271097303],[11.998562315889817,57.711933082751706],[11.995210277931386,57.711853517325586]]]},"properties":{"delay":2.157,"trips":6,"residents":6}},{"type":"Feature","geometry":{"type":"Polygon","coordinates":[[[11.99506152274359,57.71364753881726],[11.994912749896613,57.715441559552694],[11.99826511855069,57.71552113595319],[11.998413726040077,57.7137271097303],[11.99506152274359,57.71364753881726]]]},"properties":{"delay":0.157,"trips":3,"residents":3}},{"type":"Feature","geometry":{"type":"Polygon","coordinates":[[[11.999007979630226,57.70655099728182],[11.99885944268199,57.70834502652745],[12.000305554325884,57.708379323208185],[12.000305540551526,57.70658177102144],[11.999007979630226,57.70655099728182]]]},"properties":{"delay":0.157,"trips":3,"residents":2}},{"type":"Feature","geometry":{"type":"Polygon","coordinates":[[[11.998562315889817,57.711933082751706],[11.998413726040077,57.7137271097303],[12.000305577992652,57.71377197710534],[12.000305573046735,57.71197442625013],[11.998562315889817,57.711933082751706]]]},"properties":{"delay":0.157,"trips":3,"residents":3}},{"type":"Feature","geometry":{"type":"Polygon","coordinates":[[[11.998413726040077,57.7137271097303],[11.99826511855069,57.71552113595319],[12.000305579995173,57.715569527516706],[12.000305577992652,57.71377197710534],[11.998413726040077,57.7137271097303]]]},"properties":{"delay":0.157,"trips":4,"residents":3}},{"type":"Feature","geometry":{"type":"Polygon","coordinates":[[[11.99826511855069,57.71552113595319],[11.99811649341876,57.7173151614203],[12.000305579054007,57.71736707748426],[12.000305579995173,57.715569527516706],[11.99826511855069,57.71552113595319]]]},"properties":{"delay":0.157,"trips":1,"residents":1}}]}